{
"type": "FeatureCollection",
"name": "sedes_municipais",
"crs": { "type": "name", "properties": { "name": "urn:ogc:def:crs:OGC:1.3:CRS84" } },
"xy_coordinate_resolution": 1e-06,
"features": [
{ "type": "Feature", "properties": { "nome": "ALTAMIRA DO MARANHÃO", "codigo": 2100402, "uf": "ma" }, "geometry": { "type": "Point", "coordinates": [ -45.464676, -4.162269, 0.0 ] } },
{ "type": "Feature", "properties": { "nome": "ALTO ALEGRE DO PINDARÉ", "codigo": 2100477, "uf": "ma" }, "geometry": { "type": "Point", "coordinates": [ -45.84208, -3.66517, 0.0 ] } },
{ "type": "Feature", "properties": { "nome": "AMARANTE DO MARANHÃO", "codigo": 2100600, "uf": "ma" }, "geometry": { "type": "Point", "coordinates": [ -46.750638, -5.557662, 0.0 ] } },
{ "type": "Feature", "properties": { "nome": "ANAJATUBA", "codigo": 2100709, "uf": "ma" }, "geometry": { "type": "Point", "coordinates": [ -44.62067, -3.257555, 0.0 ] } },
{ "type": "Feature", "properties": { "nome": "ARAME", "codigo": 2100956, "uf": "ma" }, "geometry": { "type": "Point", "coordinates": [ -46.013636, -4.886082, 0.0 ] } },
{ "type": "Feature", "properties": { "nome": "ARARI", "codigo": 2101004, "uf": "ma" }, "geometry": { "type": "Point", "coordinates": [ -44.778835, -3.459171, 0.0 ] } },
{ "type": "Feature", "properties": { "nome": "BACABAL", "codigo": 2101202, "uf": "ma" }, "geometry": { "type": "Point", "coordinates": [ -44.781556, -4.231525, 0.0 ] } },
{ "type": "Feature", "properties": { "nome": "BACABEIRA", "codigo": 2101251, "uf": "ma" }, "geometry": { "type": "Point", "coordinates": [ -44.315423, -2.985825, 0.0 ] } },
{ "type": "Feature", "properties": { "nome": "BARRA DO CORDA", "codigo": 2101608, "uf": "ma" }, "geometry": { "type": "Point", "coordinates": [ -45.239011, -5.50834, 0.0 ] } },
{ "type": "Feature", "properties": { "nome": "BELA VISTA DO MARANHÃO", "codigo": 2101772, "uf": "ma" }, "geometry": { "type": "Point", "coordinates": [ -45.248246, -3.737733, 0.0 ] } },
{ "type": "Feature", "properties": { "nome": "BERNARDO DO MEARIM", "codigo": 2101939, "uf": "ma" }, "geometry": { "type": "Point", "coordinates": [ -44.764323, -4.630287, 0.0 ] } },
{ "type": "Feature", "properties": { "nome": "BOM JARDIM", "codigo": 2102002, "uf": "ma" }, "geometry": { "type": "Point", "coordinates": [ -45.601889, -3.544161, 0.0 ] } },
{ "type": "Feature", "properties": { "nome": "BOM JESUS DAS SELVAS", "codigo": 2102036, "uf": "ma" }, "geometry": { "type": "Point", "coordinates": [ -46.853241, -4.489968, 0.0 ] } },
{ "type": "Feature", "properties": { "nome": "BOM LUGAR", "codigo": 2102077, "uf": "ma" }, "geometry": { "type": "Point", "coordinates": [ -45.031108, -4.37551, 0.0 ] } },
{ "type": "Feature", "properties": { "nome": "BREJO DE AREIA", "codigo": 2102150, "uf": "ma" }, "geometry": { "type": "Point", "coordinates": [ -45.582095, -4.33063, 0.0 ] } },
{ "type": "Feature", "properties": { "nome": "BURITICUPU", "codigo": 2102325, "uf": "ma" }, "geometry": { "type": "Point", "coordinates": [ -46.451495, -4.325948, 0.0 ] } },
{ "type": "Feature", "properties": { "nome": "BURITIRANA", "codigo": 2102358, "uf": "ma" }, "geometry": { "type": "Point", "coordinates": [ -47.017225, -5.588915, 0.0 ] } },
{ "type": "Feature", "properties": { "nome": "CAJAPIÓ", "codigo": 2102408, "uf": "ma" }, "geometry": { "type": "Point", "coordinates": [ -44.673377, -2.882882, 0.0 ] } },
{ "type": "Feature", "properties": { "nome": "CAJARI", "codigo": 2102507, "uf": "ma" }, "geometry": { "type": "Point", "coordinates": [ -45.007965, -3.323869, 0.0 ] } },
{ "type": "Feature", "properties": { "nome": "CONCEIÇÃO DO LAGO-AÇU", "codigo": 2103554, "uf": "ma" }, "geometry": { "type": "Point", "coordinates": [ -44.903016, -3.841118, 0.0 ] } },
{ "type": "Feature", "properties": { "nome": "ESPERANTINÓPOLIS", "codigo": 2104008, "uf": "ma" }, "geometry": { "type": "Point", "coordinates": [ -44.886069, -4.870301, 0.0 ] } },
{ "type": "Feature", "properties": { "nome": "FORMOSA DA SERRA NEGRA", "codigo": 2104099, "uf": "ma" }, "geometry": { "type": "Point", "coordinates": [ -46.186357, -6.435304, 0.0 ] } },
{ "type": "Feature", "properties": { "nome": "GOVERNADOR NEWTON BELLO", "codigo": 2104651, "uf": "ma" }, "geometry": { "type": "Point", "coordinates": [ -45.674502, -3.429705, 0.0 ] } },
{ "type": "Feature", "properties": { "nome": "GRAJAÚ", "codigo": 2104800, "uf": "ma" }, "geometry": { "type": "Point", "coordinates": [ -46.142396, -5.818548, 0.0 ] } },
{ "type": "Feature", "properties": { "nome": "IGARAPÉ DO MEIO", "codigo": 2105153, "uf": "ma" }, "geometry": { "type": "Point", "coordinates": [ -45.183328, -3.636709, 0.0 ] } },
{ "type": "Feature", "properties": { "nome": "IGARAPÉ GRANDE", "codigo": 2105203, "uf": "ma" }, "geometry": { "type": "Point", "coordinates": [ -44.867403, -4.660854, 0.0 ] } },
{ "type": "Feature", "properties": { "nome": "ITAIPAVA DO GRAJAÚ", "codigo": 2105351, "uf": "ma" }, "geometry": { "type": "Point", "coordinates": [ -45.792683, -5.144582, 0.0 ] } },
{ "type": "Feature", "properties": { "nome": "JENIPAPO DOS VIEIRAS", "codigo": 2105476, "uf": "ma" }, "geometry": { "type": "Point", "coordinates": [ -45.633379, -5.369425, 0.0 ] } },
{ "type": "Feature", "properties": { "nome": "JOSELÂNDIA", "codigo": 2105609, "uf": "ma" }, "geometry": { "type": "Point", "coordinates": [ -44.699153, -4.972693, 0.0 ] } },
{ "type": "Feature", "properties": { "nome": "LAGO DA PEDRA", "codigo": 2105708, "uf": "ma" }, "geometry": { "type": "Point", "coordinates": [ -45.125891, -4.564745, 0.0 ] } },
{ "type": "Feature", "properties": { "nome": "LAGO DO JUNCO", "codigo": 2105807, "uf": "ma" }, "geometry": { "type": "Point", "coordinates": [ -45.051344, -4.607643, 0.0 ] } },
{ "type": "Feature", "properties": { "nome": "LAGO VERDE", "codigo": 2105906, "uf": "ma" }, "geometry": { "type": "Point", "coordinates": [ -44.937635, -4.038711, 0.0 ] } },
{ "type": "Feature", "properties": { "nome": "LAGO DOS RODRIGUES", "codigo": 2105948, "uf": "ma" }, "geometry": { "type": "Point", "coordinates": [ -44.976442, -4.612376, 0.0 ] } },
{ "type": "Feature", "properties": { "nome": "LAGOA GRANDE DO MARANHÃO", "codigo": 2105963, "uf": "ma" }, "geometry": { "type": "Point", "coordinates": [ -45.390614, -4.993124, 0.0 ] } },
{ "type": "Feature", "properties": { "nome": "LIMA CAMPOS", "codigo": 2106003, "uf": "ma" }, "geometry": { "type": "Point", "coordinates": [ -44.46934, -4.517046, 0.0 ] } },
{ "type": "Feature", "properties": { "nome": "MARAJÁ DO SENA", "codigo": 2106359, "uf": "ma" }, "geometry": { "type": "Point", "coordinates": [ -45.457238, -4.620313, 0.0 ] } },
{ "type": "Feature", "properties": { "nome": "MATINHA", "codigo": 2106508, "uf": "ma" }, "geometry": { "type": "Point", "coordinates": [ -45.036429, -3.0984, 0.0 ] } },
{ "type": "Feature", "properties": { "nome": "MONÇÃO", "codigo": 2106904, "uf": "ma" }, "geometry": { "type": "Point", "coordinates": [ -45.247585, -3.493932, 0.0 ] } },
{ "type": "Feature", "properties": { "nome": "OLHO D'ÁGUA DAS CUNHÃS", "codigo": 2107407, "uf": "ma" }, "geometry": { "type": "Point", "coordinates": [ -45.11958, -4.137276, 0.0 ] } },
{ "type": "Feature", "properties": { "nome": "OLINDA NOVA DO MARANHÃO", "codigo": 2107456, "uf": "ma" }, "geometry": { "type": "Point", "coordinates": [ -45.003235, -2.997478, 0.0 ] } },
{ "type": "Feature", "properties": { "nome": "PAULO RAMOS", "codigo": 2108108, "uf": "ma" }, "geometry": { "type": "Point", "coordinates": [ -45.23998, -4.447957, 0.0 ] } },
{ "type": "Feature", "properties": { "nome": "PEDREIRAS", "codigo": 2108207, "uf": "ma" }, "geometry": { "type": "Point", "coordinates": [ -44.603735, -4.569351, 0.0 ] } },
{ "type": "Feature", "properties": { "nome": "PENALVA", "codigo": 2108306, "uf": "ma" }, "geometry": { "type": "Point", "coordinates": [ -45.176462, -3.293233, 0.0 ] } },
{ "type": "Feature", "properties": { "nome": "PINDARÉ-MIRIM", "codigo": 2108504, "uf": "ma" }, "geometry": { "type": "Point", "coordinates": [ -45.346868, -3.605501, 0.0 ] } },
{ "type": "Feature", "properties": { "nome": "PIO XII", "codigo": 2108702, "uf": "ma" }, "geometry": { "type": "Point", "coordinates": [ -45.16996, -3.887588, 0.0 ] } },
{ "type": "Feature", "properties": { "nome": "POÇÃO DE PEDRAS", "codigo": 2108900, "uf": "ma" }, "geometry": { "type": "Point", "coordinates": [ -44.951551, -4.750025, 0.0 ] } },
{ "type": "Feature", "properties": { "nome": "PRESIDENTE DUTRA", "codigo": 2109106, "uf": "ma" }, "geometry": { "type": "Point", "coordinates": [ -44.492919, -5.282374, 0.0 ] } },
{ "type": "Feature", "properties": { "nome": "SANTA FILOMENA DO MARANHÃO", "codigo": 2109759, "uf": "ma" }, "geometry": { "type": "Point", "coordinates": [ -44.563714, -5.499767, 0.0 ] } },
{ "type": "Feature", "properties": { "nome": "SANTA INÊS", "codigo": 2109908, "uf": "ma" }, "geometry": { "type": "Point", "coordinates": [ -45.378272, -3.658575, 0.0 ] } },
{ "type": "Feature", "properties": { "nome": "SANTA LUZIA", "codigo": 2110005, "uf": "ma" }, "geometry": { "type": "Point", "coordinates": [ -45.665012, -3.968391, 0.0 ] } },
{ "type": "Feature", "properties": { "nome": "SANTA RITA", "codigo": 2110203, "uf": "ma" }, "geometry": { "type": "Point", "coordinates": [ -44.319948, -3.134117, 0.0 ] } },
{ "type": "Feature", "properties": { "nome": "SÃO JOÃO BATISTA", "codigo": 2111003, "uf": "ma" }, "geometry": { "type": "Point", "coordinates": [ -44.811762, -2.953333, 0.0 ] } },
{ "type": "Feature", "properties": { "nome": "SÃO JOÃO DO CARÚ", "codigo": 2111029, "uf": "ma" }, "geometry": { "type": "Point", "coordinates": [ -46.254925, -3.560803, 0.0 ] } },
{ "type": "Feature", "properties": { "nome": "SÃO JOSÉ DOS BASÍLIOS", "codigo": 2111250, "uf": "ma" }, "geometry": { "type": "Point", "coordinates": [ -44.582447, -5.048687, 0.0 ] } },
{ "type": "Feature", "properties": { "nome": "SÃO LUÍS GONZAGA DO MARANHÃO", "codigo": 2111409, "uf": "ma" }, "geometry": { "type": "Point", "coordinates": [ -44.662708, -4.373918, 0.0 ] } },
{ "type": "Feature", "properties": { "nome": "SÃO MATEUS DO MARANHÃO", "codigo": 2111508, "uf": "ma" }, "geometry": { "type": "Point", "coordinates": [ -44.468563, -4.034551, 0.0 ] } },
{ "type": "Feature", "properties": { "nome": "SÃO RAIMUNDO DO DOCA BEZERRA", "codigo": 2111631, "uf": "ma" }, "geometry": { "type": "Point", "coordinates": [ -45.084163, -5.103182, 0.0 ] } },
{ "type": "Feature", "properties": { "nome": "SÃO ROBERTO", "codigo": 2111672, "uf": "ma" }, "geometry": { "type": "Point", "coordinates": [ -44.991901, -5.017367, 0.0 ] } },
{ "type": "Feature", "properties": { "nome": "SATUBINHA", "codigo": 2111722, "uf": "ma" }, "geometry": { "type": "Point", "coordinates": [ -45.23363, -4.035735, 0.0 ] } },
{ "type": "Feature", "properties": { "nome": "SÍTIO NOVO", "codigo": 2111805, "uf": "ma" }, "geometry": { "type": "Point", "coordinates": [ -46.694983, -5.87063, 0.0 ] } },
{ "type": "Feature", "properties": { "nome": "TRIZIDELA DO VALE", "codigo": 2112233, "uf": "ma" }, "geometry": { "type": "Point", "coordinates": [ -44.610685, -4.570127, 0.0 ] } },
{ "type": "Feature", "properties": { "nome": "TUFILÂNDIA", "codigo": 2112274, "uf": "ma" }, "geometry": { "type": "Point", "coordinates": [ -45.633916, -3.676404, 0.0 ] } },
{ "type": "Feature", "properties": { "nome": "TUNTUM", "codigo": 2112308, "uf": "ma" }, "geometry": { "type": "Point", "coordinates": [ -44.649012, -5.249656, 0.0 ] } },
{ "type": "Feature", "properties": { "nome": "VIANA", "codigo": 2112803, "uf": "ma" }, "geometry": { "type": "Point", "coordinates": [ -45.001307, -3.214563, 0.0 ] } },
{ "type": "Feature", "properties": { "nome": "VITÓRIA DO MEARIM", "codigo": 2112902, "uf": "ma" }, "geometry": { "type": "Point", "coordinates": [ -44.869572, -3.482047, 0.0 ] } },
{ "type": "Feature", "properties": { "nome": "VITORINO FREIRE", "codigo": 2113009, "uf": "ma" }, "geometry": { "type": "Point", "coordinates": [ -45.244185, -4.291187, 0.0 ] } },
{ "type": "Feature", "properties": { "nome": "ZÉ DOCA", "codigo": 2114007, "uf": "ma" }, "geometry": { "type": "Point", "coordinates": [ -45.657698, -3.275481, 0.0 ] } }
]
}
