{
"type": "FeatureCollection",
"name": "unidades_conservacao",
"crs": { "type": "name", "properties": { "name": "urn:ogc:def:crs:OGC:1.3:CRS84" } },
"xy_coordinate_resolution": 1e-06,
"features": [
{ "type": "Feature", "properties": { "nome_federal": "RESERVA BIOLÓGICA DO GURUPI", "nome_estadual": null, "categoria": null, "grupo": null, "esfera": null, "ano_criacao": null }, "geometry": { "type": "Polygon", "coordinates": [ [ [ -46.576806, -3.557315, 0.0 ], [ -46.571251, -3.56843, 0.0 ], [ -46.57119, -3.568313, 0.0 ], [ -46.570218, -3.568513, 0.0 ], [ -46.56971, -3.568985, 0.0 ], [ -46.569203, -3.569519, 0.0 ], [ -46.568253, -3.570696, 0.0 ], [ -46.567807, -3.571339, 0.0 ], [ -46.567307, -3.572109, 0.0 ], [ -46.566864, -3.572806, 0.0 ], [ -46.56654, -3.573684, 0.0 ], [ -46.56577, -3.575204, 0.0 ], [ -46.565327, -3.575965, 0.0 ], [ -46.564885, -3.576843, 0.0 ], [ -46.564167, -3.578065, 0.0 ], [ -46.56366, -3.578599, 0.0 ], [ -46.563229, -3.579821, 0.0 ], [ -46.562394, -3.580935, 0.0 ], [ -46.561234, -3.583044, 0.0 ], [ -46.560742, -3.584266, 0.0 ], [ -46.560303, -3.585143, 0.0 ], [ -46.559864, -3.586022, 0.0 ], [ -46.559479, -3.586899, 0.0 ], [ -46.558647, -3.588248, 0.0 ], [ -46.557816, -3.589534, 0.0 ], [ -46.556813, -3.590829, 0.0 ], [ -46.556313, -3.591653, 0.0 ], [ -46.555867, -3.59235, 0.0 ], [ -46.55542, -3.592884, 0.0 ], [ -46.554753, -3.593934, 0.0 ], [ -46.554482, -3.594523, 0.0 ], [ -46.554104, -3.595681, 0.0 ], [ -46.553604, -3.596505, 0.0 ], [ -46.553391, -3.597147, 0.0 ], [ -46.552952, -3.598025, 0.0 ], [ -46.552563, -3.598722, 0.0 ], [ -46.552235, -3.599483, 0.0 ], [ -46.551907, -3.600179, 0.0 ], [ -46.551403, -3.600831, 0.0 ], [ -46.550679, -3.601773, 0.0 ], [ -46.54961, -3.602833, 0.0 ], [ -46.548889, -3.603947, 0.0 ], [ -46.548504, -3.60477, 0.0 ], [ -46.548355, -3.605865, 0.0 ], [ -46.548367, -3.606272, 0.0 ], [ -46.548043, -3.607258, 0.0 ], [ -46.547726, -3.608362, 0.0 ], [ -46.547562, -3.608887, 0.0 ], [ -46.547398, -3.609122, 0.0 ], [ -46.547013, -3.61, 0.0 ], [ -46.546685, -3.610643, 0.0 ], [ -46.546467, -3.611168, 0.0 ], [ -46.545853, -3.6121, 0.0 ], [ -46.545365, -3.613268, 0.0 ], [ -46.544968, -3.613621, 0.0 ], [ -46.544808, -3.614037, 0.0 ], [ -46.544411, -3.614273, 0.0 ], [ -46.543789, -3.614862, 0.0 ], [ -46.543228, -3.615514, 0.0 ], [ -46.543118, -3.615578, 0.0 ], [ -46.543064, -3.61575, 0.0 ], [ -46.542893, -3.615931, 0.0 ], [ -46.542786, -3.61622, 0.0 ], [ -46.542675, -3.616338, 0.0 ], [ -46.542561, -3.616393, 0.0 ], [ -46.542504, -3.61651, 0.0 ], [ -46.54245, -3.616691, 0.0 ], [ -46.54234, -3.616746, 0.0 ], [ -46.542137, -3.616972, 0.0 ], [ -46.542233, -3.617153, 0.0 ], [ -46.542237, -3.61727, 0.0 ], [ -46.54224, -3.617442, 0.0 ], [ -46.542256, -3.618193, 0.0 ], [ -46.542263, -3.618428, 0.0 ], [ -46.542263, -3.618536, 0.0 ], [ -46.542279, -3.619233, 0.0 ], [ -46.54229, -3.619694, 0.0 ], [ -46.542366, -3.620499, 0.0 ], [ -46.54245, -3.621656, 0.0 ], [ -46.542515, -3.622054, 0.0 ], [ -46.542526, -3.622515, 0.0 ], [ -46.542538, -3.622922, 0.0 ], [ -46.54266, -3.623374, 0.0 ], [ -46.542858, -3.624468, 0.0 ], [ -46.543041, -3.624866, 0.0 ], [ -46.543347, -3.62567, 0.0 ], [ -46.54353, -3.626185, 0.0 ], [ -46.543892, -3.626809, 0.0 ], [ -46.543953, -3.626981, 0.0 ], [ -46.544068, -3.627034, 0.0 ], [ -46.544709, -3.627368, 0.0 ], [ -46.545292, -3.627756, 0.0 ], [ -46.545353, -3.627873, 0.0 ], [ -46.545994, -3.628261, 0.0 ], [ -46.546749, -3.628594, 0.0 ], [ -46.546864, -3.628585, 0.0 ], [ -46.547501, -3.628865, 0.0 ], [ -46.547795, -3.629144, 0.0 ], [ -46.548554, -3.629532, 0.0 ], [ -46.548958, -3.629694, 0.0 ], [ -46.549244, -3.62963, 0.0 ], [ -46.54953, -3.629566, 0.0 ], [ -46.549542, -3.629964, 0.0 ], [ -46.549546, -3.630254, 0.0 ], [ -46.549607, -3.630425, 0.0 ], [ -46.549557, -3.630661, 0.0 ], [ -46.549561, -3.630832, 0.0 ], [ -46.549446, -3.630833, 0.0 ], [ -46.549282, -3.63124, 0.0 ], [ -46.549027, -3.632751, 0.0 ], [ -46.548977, -3.632986, 0.0 ], [ -46.548989, -3.633447, 0.0 ], [ -46.548943, -3.634017, 0.0 ], [ -46.548947, -3.634252, 0.0 ], [ -46.548954, -3.634487, 0.0 ], [ -46.549015, -3.634713, 0.0 ], [ -46.549023, -3.634939, 0.0 ], [ -46.549191, -3.634821, 0.0 ], [ -46.549477, -3.634758, 0.0 ], [ -46.549763, -3.634694, 0.0 ], [ -46.549881, -3.634865, 0.0 ], [ -46.550289, -3.635082, 0.0 ], [ -46.550698, -3.635307, 0.0 ], [ -46.550927, -3.635298, 0.0 ], [ -46.551213, -3.63518, 0.0 ], [ -46.55167, -3.63517, 0.0 ], [ -46.551785, -3.635052, 0.0 ], [ -46.551834, -3.634817, 0.0 ], [ -46.551892, -3.634699, 0.0 ], [ -46.552002, -3.634464, 0.0 ], [ -46.552166, -3.634228, 0.0 ], [ -46.552449, -3.633993, 0.0 ], [ -46.552563, -3.633992, 0.0 ], [ -46.552853, -3.633983, 0.0 ], [ -46.553025, -3.633983, 0.0 ], [ -46.553196, -3.633973, 0.0 ], [ -46.553425, -3.633973, 0.0 ], [ -46.553543, -3.633964, 0.0 ], [ -46.553891, -3.634072, 0.0 ], [ -46.554936, -3.634513, 0.0 ], [ -46.555344, -3.634793, 0.0 ], [ -46.555867, -3.635009, 0.0 ], [ -46.556393, -3.635397, 0.0 ], [ -46.556858, -3.63574, 0.0 ], [ -46.557095, -3.635956, 0.0 ], [ -46.55756, -3.636236, 0.0 ], [ -46.557972, -3.636579, 0.0 ], [ -46.558091, -3.636741, 0.0 ], [ -46.558445, -3.637202, 0.0 ], [ -46.558861, -3.637708, 0.0 ], [ -46.559216, -3.638277, 0.0 ], [ -46.559685, -3.638665, 0.0 ], [ -46.560738, -3.639396, 0.0 ], [ -46.562024, -3.640289, 0.0 ], [ -46.563126, -3.640775, 0.0 ], [ -46.564221, -3.640809, 0.0 ], [ -46.564907, -3.640682, 0.0 ], [ -46.565194, -3.640554, 0.0 ], [ -46.565529, -3.640201, 0.0 ], [ -46.565747, -3.639676, 0.0 ], [ -46.565972, -3.639441, 0.0 ], [ -46.566025, -3.639205, 0.0 ], [ -46.566193, -3.639033, 0.0 ], [ -46.566418, -3.638906, 0.0 ], [ -46.566533, -3.638852, 0.0 ], [ -46.566704, -3.638843, 0.0 ], [ -46.567048, -3.638779, 0.0 ], [ -46.56728, -3.638832, 0.0 ], [ -46.567566, -3.638823, 0.0 ], [ -46.567742, -3.63894, 0.0 ], [ -46.567921, -3.639166, 0.0 ], [ -46.568039, -3.639392, 0.0 ], [ -46.568104, -3.639618, 0.0 ], [ -46.568169, -3.639907, 0.0 ], [ -46.568173, -3.640197, 0.0 ], [ -46.568295, -3.640486, 0.0 ], [ -46.568299, -3.640594, 0.0 ], [ -46.568303, -3.640829, 0.0 ], [ -46.568425, -3.641173, 0.0 ], [ -46.568436, -3.641516, 0.0 ], [ -46.568509, -3.642321, 0.0 ], [ -46.568573, -3.64261, 0.0 ], [ -46.568703, -3.643243, 0.0 ], [ -46.568715, -3.643704, 0.0 ], [ -46.568779, -3.644102, 0.0 ], [ -46.568844, -3.644392, 0.0 ], [ -46.569207, -3.645196, 0.0 ], [ -46.569512, -3.645874, 0.0 ], [ -46.569634, -3.646108, 0.0 ], [ -46.57005, -3.646732, 0.0 ], [ -46.570519, -3.64712, 0.0 ], [ -46.57111, -3.64786, 0.0 ], [ -46.571705, -3.648827, 0.0 ], [ -46.57206, -3.649224, 0.0 ], [ -46.574051, -3.650849, 0.0 ], [ -46.574635, -3.651182, 0.0 ], [ -46.575562, -3.651506, 0.0 ], [ -46.576081, -3.65155, 0.0 ], [ -46.576314, -3.651541, 0.0 ], [ -46.576771, -3.651531, 0.0 ], [ -46.577061, -3.651585, 0.0 ], [ -46.577923, -3.65162, 0.0 ], [ -46.578614, -3.6516, 0.0 ], [ -46.579133, -3.651645, 0.0 ], [ -46.579594, -3.651698, 0.0 ], [ -46.579766, -3.651806, 0.0 ], [ -46.580521, -3.652022, 0.0 ], [ -46.580933, -3.652473, 0.0 ], [ -46.58128, -3.652635, 0.0 ], [ -46.58146, -3.652807, 0.0 ], [ -46.582398, -3.653646, 0.0 ], [ -46.582982, -3.654034, 0.0 ], [ -46.583386, -3.654205, 0.0 ], [ -46.58408, -3.654304, 0.0 ], [ -46.585255, -3.655423, 0.0 ], [ -46.586251, -3.656271, 0.0 ], [ -46.587128, -3.656821, 0.0 ], [ -46.587945, -3.657326, 0.0 ], [ -46.588818, -3.657876, 0.0 ], [ -46.589818, -3.658779, 0.0 ], [ -46.59076, -3.659799, 0.0 ], [ -46.591878, -3.66081, 0.0 ], [ -46.593403, -3.662272, 0.0 ], [ -46.594285, -3.663058, 0.0 ], [ -46.594819, -3.663735, 0.0 ], [ -46.595345, -3.664132, 0.0 ], [ -46.596108, -3.664863, 0.0 ], [ -46.597352, -3.666389, 0.0 ], [ -46.597825, -3.667012, 0.0 ], [ -46.598767, -3.667852, 0.0 ], [ -46.599293, -3.668303, 0.0 ], [ -46.599587, -3.668583, 0.0 ], [ -46.600571, -3.668852, 0.0 ], [ -46.601094, -3.669132, 0.0 ], [ -46.601441, -3.669231, 0.0 ], [ -46.602021, -3.669338, 0.0 ], [ -46.603291, -3.669652, 0.0 ], [ -46.603757, -3.669814, 0.0 ], [ -46.604333, -3.669913, 0.0 ], [ -46.604798, -3.670138, 0.0 ], [ -46.604977, -3.670418, 0.0 ], [ -46.604989, -3.670997, 0.0 ], [ -46.604996, -3.671286, 0.0 ], [ -46.605004, -3.67163, 0.0 ], [ -46.604958, -3.672091, 0.0 ], [ -46.604966, -3.672498, 0.0 ], [ -46.604916, -3.672733, 0.0 ], [ -46.604874, -3.673538, 0.0 ], [ -46.604886, -3.673882, 0.0 ], [ -46.604947, -3.674171, 0.0 ], [ -46.605134, -3.67474, 0.0 ], [ -46.60526, -3.675147, 0.0 ], [ -46.605321, -3.675373, 0.0 ], [ -46.605386, -3.675662, 0.0 ], [ -46.605622, -3.675942, 0.0 ], [ -46.605859, -3.676168, 0.0 ], [ -46.60621, -3.676448, 0.0 ], [ -46.606385, -3.676619, 0.0 ], [ -46.60656, -3.676791, 0.0 ], [ -46.608651, -3.677718, 0.0 ], [ -46.609818, -3.678386, 0.0 ], [ -46.611043, -3.679215, 0.0 ], [ -46.612103, -3.68029, 0.0 ], [ -46.612222, -3.680407, 0.0 ], [ -46.612813, -3.681084, 0.0 ], [ -46.613225, -3.68159, 0.0 ], [ -46.613698, -3.682159, 0.0 ], [ -46.613999, -3.682664, 0.0 ], [ -46.614179, -3.682953, 0.0 ], [ -46.61448, -3.683577, 0.0 ], [ -46.614667, -3.684155, 0.0 ], [ -46.615025, -3.684779, 0.0 ], [ -46.615498, -3.685456, 0.0 ], [ -46.615853, -3.685745, 0.0 ], [ -46.616139, -3.685735, 0.0 ], [ -46.616658, -3.685725, 0.0 ], [ -46.617173, -3.685652, 0.0 ], [ -46.61757, -3.68547, 0.0 ], [ -46.617684, -3.685353, 0.0 ], [ -46.617848, -3.685117, 0.0 ], [ -46.618016, -3.684764, 0.0 ], [ -46.618119, -3.684357, 0.0 ], [ -46.61823, -3.684068, 0.0 ], [ -46.618337, -3.683778, 0.0 ], [ -46.618497, -3.683199, 0.0 ], [ -46.618722, -3.682954, 0.0 ], [ -46.618829, -3.682665, 0.0 ], [ -46.619172, -3.682546, 0.0 ], [ -46.619573, -3.682537, 0.0 ], [ -46.619977, -3.682527, 0.0 ], [ -46.620263, -3.682517, 0.0 ], [ -46.620438, -3.682626, 0.0 ], [ -46.620786, -3.682734, 0.0 ], [ -46.621018, -3.682905, 0.0 ], [ -46.621484, -3.683121, 0.0 ], [ -46.621896, -3.683573, 0.0 ], [ -46.622197, -3.684024, 0.0 ], [ -46.62267, -3.684711, 0.0 ], [ -46.622968, -3.685108, 0.0 ], [ -46.62309, -3.685388, 0.0 ], [ -46.623212, -3.685732, 0.0 ], [ -46.623448, -3.686075, 0.0 ], [ -46.623815, -3.686879, 0.0 ], [ -46.624234, -3.687674, 0.0 ], [ -46.624535, -3.688243, 0.0 ], [ -46.624658, -3.688587, 0.0 ], [ -46.624906, -3.689328, 0.0 ], [ -46.625215, -3.690358, 0.0 ], [ -46.625585, -3.691451, 0.0 ], [ -46.625958, -3.692708, 0.0 ], [ -46.626691, -3.694479, 0.0 ], [ -46.627114, -3.695337, 0.0 ], [ -46.627538, -3.69625, 0.0 ], [ -46.627896, -3.696873, 0.0 ], [ -46.628079, -3.697334, 0.0 ], [ -46.628381, -3.698021, 0.0 ], [ -46.628682, -3.69859, 0.0 ], [ -46.629163, -3.699448, 0.0 ], [ -46.629464, -3.700017, 0.0 ], [ -46.62964, -3.70018, 0.0 ], [ -46.629933, -3.700469, 0.0 ], [ -46.630227, -3.700685, 0.0 ], [ -46.630521, -3.700974, 0.0 ], [ -46.630929, -3.70119, 0.0 ], [ -46.631276, -3.701416, 0.0 ], [ -46.631455, -3.701642, 0.0 ], [ -46.631864, -3.701976, 0.0 ], [ -46.632272, -3.702137, 0.0 ], [ -46.632798, -3.702589, 0.0 ], [ -46.633439, -3.702922, 0.0 ], [ -46.633904, -3.703138, 0.0 ], [ -46.634313, -3.703364, 0.0 ], [ -46.634721, -3.70358, 0.0 ], [ -46.635011, -3.703688, 0.0 ], [ -46.635419, -3.703968, 0.0 ], [ -46.636121, -3.704473, 0.0 ], [ -46.636647, -3.704924, 0.0 ], [ -46.637357, -3.705655, 0.0 ], [ -46.638108, -3.705862, 0.0 ], [ -46.638856, -3.705851, 0.0 ], [ -46.639314, -3.705832, 0.0 ], [ -46.639485, -3.705714, 0.0 ], [ -46.639768, -3.705533, 0.0 ], [ -46.64005, -3.705297, 0.0 ], [ -46.640451, -3.705233, 0.0 ], [ -46.640904, -3.704934, 0.0 ], [ -46.641419, -3.704915, 0.0 ], [ -46.64182, -3.704851, 0.0 ], [ -46.641995, -3.70485, 0.0 ], [ -46.642625, -3.704831, 0.0 ], [ -46.642919, -3.705003, 0.0 ], [ -46.643148, -3.704939, 0.0 ], [ -46.643319, -3.704993, 0.0 ], [ -46.643437, -3.705155, 0.0 ], [ -46.643911, -3.705607, 0.0 ], [ -46.644036, -3.706122, 0.0 ], [ -46.644044, -3.706529, 0.0 ], [ -46.643994, -3.706764, 0.0 ], [ -46.644353, -3.707442, 0.0 ], [ -46.644998, -3.707947, 0.0 ], [ -46.645463, -3.708226, 0.0 ], [ -46.646104, -3.70856, 0.0 ], [ -46.646573, -3.708893, 0.0 ], [ -46.646806, -3.709119, 0.0 ], [ -46.646932, -3.709517, 0.0 ], [ -46.647229, -3.709914, 0.0 ], [ -46.647527, -3.710311, 0.0 ], [ -46.647885, -3.710935, 0.0 ], [ -46.648957, -3.712533, 0.0 ], [ -46.649373, -3.713093, 0.0 ], [ -46.649724, -3.713436, 0.0 ], [ -46.65019, -3.713652, 0.0 ], [ -46.650422, -3.713824, 0.0 ], [ -46.650891, -3.714094, 0.0 ], [ -46.651006, -3.714094, 0.0 ], [ -46.651353, -3.714148, 0.0 ], [ -46.6517, -3.714255, 0.0 ], [ -46.652219, -3.7143, 0.0 ], [ -46.653657, -3.714433, 0.0 ], [ -46.65458, -3.714467, 0.0 ], [ -46.655385, -3.714448, 0.0 ], [ -46.655957, -3.714437, 0.0 ], [ -46.65653, -3.714246, 0.0 ], [ -46.657102, -3.714182, 0.0 ], [ -46.657621, -3.714163, 0.0 ], [ -46.658307, -3.714035, 0.0 ], [ -46.659398, -3.714006, 0.0 ], [ -46.660035, -3.714167, 0.0 ], [ -46.660325, -3.71433, 0.0 ], [ -46.660562, -3.714555, 0.0 ], [ -46.660741, -3.714899, 0.0 ], [ -46.661107, -3.715757, 0.0 ], [ -46.661519, -3.716208, 0.0 ], [ -46.661809, -3.716316, 0.0 ], [ -46.662164, -3.716714, 0.0 ], [ -46.662393, -3.716758, 0.0 ], [ -46.662736, -3.716577, 0.0 ], [ -46.663251, -3.716513, 0.0 ], [ -46.664056, -3.716493, 0.0 ], [ -46.664228, -3.716547, 0.0 ], [ -46.664232, -3.716664, 0.0 ], [ -46.664193, -3.717524, 0.0 ], [ -46.664319, -3.71793, 0.0 ], [ -46.664693, -3.719132, 0.0 ], [ -46.665181, -3.720389, 0.0 ], [ -46.665311, -3.721075, 0.0 ], [ -46.665273, -3.721889, 0.0 ], [ -46.665078, -3.723391, 0.0 ], [ -46.665048, -3.724603, 0.0 ], [ -46.665063, -3.725299, 0.0 ], [ -46.665082, -3.726104, 0.0 ], [ -46.665151, -3.726565, 0.0 ], [ -46.665212, -3.726791, 0.0 ], [ -46.665277, -3.727143, 0.0 ], [ -46.665284, -3.727315, 0.0 ], [ -46.66541, -3.727948, 0.0 ], [ -46.665715, -3.728689, 0.0 ], [ -46.666009, -3.728969, 0.0 ], [ -46.666265, -3.730063, 0.0 ], [ -46.666391, -3.730514, 0.0 ], [ -46.666517, -3.731039, 0.0 ], [ -46.667287, -3.731942, 0.0 ], [ -46.668058, -3.732962, 0.0 ], [ -46.668412, -3.733413, 0.0 ], [ -46.668821, -3.733576, 0.0 ], [ -46.668935, -3.733575, 0.0 ], [ -46.669278, -3.733566, 0.0 ], [ -46.66945, -3.733565, 0.0 ], [ -46.669622, -3.733502, 0.0 ], [ -46.669797, -3.733492, 0.0 ], [ -46.670198, -3.733482, 0.0 ], [ -46.670369, -3.733536, 0.0 ], [ -46.670949, -3.733644, 0.0 ], [ -46.671701, -3.733914, 0.0 ], [ -46.672052, -3.734076, 0.0 ], [ -46.67217, -3.734247, 0.0 ], [ -46.672521, -3.734464, 0.0 ], [ -46.672757, -3.734753, 0.0 ], [ -46.673166, -3.734969, 0.0 ], [ -46.673517, -3.735194, 0.0 ], [ -46.673688, -3.735248, 0.0 ], [ -46.673974, -3.735184, 0.0 ], [ -46.674318, -3.735175, 0.0 ], [ -46.674665, -3.735165, 0.0 ], [ -46.674894, -3.735101, 0.0 ], [ -46.675123, -3.735038, 0.0 ], [ -46.675405, -3.734919, 0.0 ], [ -46.675748, -3.734792, 0.0 ], [ -46.676149, -3.734665, 0.0 ], [ -46.676484, -3.734375, 0.0 ], [ -46.676824, -3.73413, 0.0 ], [ -46.677163, -3.733777, 0.0 ], [ -46.677671, -3.733423, 0.0 ], [ -46.678186, -3.733232, 0.0 ], [ -46.678525, -3.733114, 0.0 ], [ -46.679098, -3.732977, 0.0 ], [ -46.679445, -3.732976, 0.0 ], [ -46.679616, -3.732967, 0.0 ], [ -46.680021, -3.733129, 0.0 ], [ -46.680425, -3.733183, 0.0 ], [ -46.680772, -3.73329, 0.0 ], [ -46.680952, -3.733453, 0.0 ], [ -46.681528, -3.73356, 0.0 ], [ -46.681642, -3.733614, 0.0 ], [ -46.681707, -3.73384, 0.0 ], [ -46.682176, -3.734174, 0.0 ], [ -46.68276, -3.734679, 0.0 ], [ -46.683172, -3.735076, 0.0 ], [ -46.683526, -3.73541, 0.0 ], [ -46.683763, -3.735808, 0.0 ], [ -46.684183, -3.73644, 0.0 ], [ -46.684709, -3.736828, 0.0 ], [ -46.685411, -3.737387, 0.0 ], [ -46.686414, -3.738579, 0.0 ], [ -46.686948, -3.739193, 0.0 ], [ -46.687646, -3.73958, 0.0 ], [ -46.688638, -3.740193, 0.0 ], [ -46.68997, -3.740625, 0.0 ], [ -46.691148, -3.741807, 0.0 ], [ -46.691854, -3.742421, 0.0 ], [ -46.693204, -3.743666, 0.0 ], [ -46.694025, -3.744334, 0.0 ], [ -46.695253, -3.745226, 0.0 ], [ -46.69631, -3.746237, 0.0 ], [ -46.69713, -3.746914, 0.0 ], [ -46.697896, -3.747591, 0.0 ], [ -46.698717, -3.748321, 0.0 ], [ -46.699781, -3.749504, 0.0 ], [ -46.700662, -3.750461, 0.0 ], [ -46.700861, -3.751437, 0.0 ], [ -46.701677, -3.752059, 0.0 ], [ -46.702089, -3.752393, 0.0 ], [ -46.702467, -3.752754, 0.0 ], [ -46.702085, -3.754536, 0.0 ], [ -46.458748, -3.853151, 0.0 ], [ -46.625417, -4.130929, 0.0 ], [ -46.755972, -4.122602, 0.0 ], [ -46.818418, -3.997719, 0.0 ], [ -46.817657, -3.997842, 0.0 ], [ -46.816742, -3.997901, 0.0 ], [ -46.816113, -3.99796, 0.0 ], [ -46.814626, -3.997561, 0.0 ], [ -46.814225, -3.997275, 0.0 ], [ -46.813709, -3.996759, 0.0 ], [ -46.813193, -3.996186, 0.0 ], [ -46.811933, -3.995041, 0.0 ], [ -46.811245, -3.994123, 0.0 ], [ -46.810729, -3.993378, 0.0 ], [ -46.810327, -3.992633, 0.0 ], [ -46.809124, -3.991831, 0.0 ], [ -46.808494, -3.991029, 0.0 ], [ -46.807921, -3.990801, 0.0 ], [ -46.806148, -3.990402, 0.0 ], [ -46.805576, -3.990346, 0.0 ], [ -46.80449, -3.990464, 0.0 ], [ -46.803747, -3.990752, 0.0 ], [ -46.802947, -3.990984, 0.0 ], [ -46.802148, -3.991445, 0.0 ], [ -46.801233, -3.991562, 0.0 ], [ -46.800319, -3.991564, 0.0 ], [ -46.799117, -3.991337, 0.0 ], [ -46.798602, -3.990936, 0.0 ], [ -46.798315, -3.99042, 0.0 ], [ -46.797398, -3.989618, 0.0 ], [ -46.796825, -3.98893, 0.0 ], [ -46.796481, -3.988357, 0.0 ], [ -46.79585, -3.987612, 0.0 ], [ -46.795048, -3.986752, 0.0 ], [ -46.794189, -3.98595, 0.0 ], [ -46.793273, -3.985435, 0.0 ], [ -46.792243, -3.985265, 0.0 ], [ -46.791043, -3.985268, 0.0 ], [ -46.790128, -3.98527, 0.0 ], [ -46.789099, -3.985272, 0.0 ], [ -46.788698, -3.985273, 0.0 ], [ -46.787554, -3.985103, 0.0 ], [ -46.786468, -3.984818, 0.0 ], [ -46.785838, -3.98436, 0.0 ], [ -46.785436, -3.983615, 0.0 ], [ -46.785091, -3.982927, 0.0 ], [ -46.784919, -3.98241, 0.0 ], [ -46.784745, -3.981664, 0.0 ], [ -46.784343, -3.980631, 0.0 ], [ -46.783713, -3.979944, 0.0 ], [ -46.783082, -3.979371, 0.0 ], [ -46.782223, -3.978741, 0.0 ], [ -46.781193, -3.978112, 0.0 ], [ -46.780563, -3.977711, 0.0 ], [ -46.779648, -3.977311, 0.0 ], [ -46.778388, -3.976682, 0.0 ], [ -46.777358, -3.976168, 0.0 ], [ -46.776728, -3.975767, 0.0 ], [ -46.775927, -3.975367, 0.0 ], [ -46.774725, -3.974623, 0.0 ], [ -46.773866, -3.974338, 0.0 ], [ -46.772779, -3.973938, 0.0 ], [ -46.771692, -3.973711, 0.0 ], [ -46.77032, -3.973369, 0.0 ], [ -46.769346, -3.972797, 0.0 ], [ -46.768544, -3.971995, 0.0 ], [ -46.767742, -3.971193, 0.0 ], [ -46.767511, -3.970332, 0.0 ], [ -46.767395, -3.969299, 0.0 ], [ -46.767222, -3.968553, 0.0 ], [ -46.767106, -3.967749, 0.0 ], [ -46.767161, -3.967002, 0.0 ], [ -46.767216, -3.966026, 0.0 ], [ -46.767158, -3.96528, 0.0 ], [ -46.767156, -3.964533, 0.0 ], [ -46.766925, -3.963615, 0.0 ], [ -46.766637, -3.962467, 0.0 ], [ -46.766292, -3.961549, 0.0 ], [ -46.766118, -3.960459, 0.0 ], [ -46.765773, -3.959196, 0.0 ], [ -46.765713, -3.958163, 0.0 ], [ -46.765711, -3.957187, 0.0 ], [ -46.765709, -3.956268, 0.0 ], [ -46.765535, -3.954948, 0.0 ], [ -46.765189, -3.953743, 0.0 ], [ -46.764902, -3.952882, 0.0 ], [ -46.7645, -3.952079, 0.0 ], [ -46.76404, -3.950989, 0.0 ], [ -46.763581, -3.950358, 0.0 ], [ -46.763179, -3.949498, 0.0 ], [ -46.762835, -3.948752, 0.0 ], [ -46.76249, -3.947891, 0.0 ], [ -46.762202, -3.946973, 0.0 ], [ -46.761972, -3.946333, 0.0 ], [ -46.761827, -3.945519, 0.0 ], [ -46.76173, -3.944802, 0.0 ], [ -46.761729, -3.944108, 0.0 ], [ -46.761728, -3.943462, 0.0 ], [ -46.761893, -3.942696, 0.0 ], [ -46.762059, -3.942265, 0.0 ], [ -46.762177, -3.941858, 0.0 ], [ -46.762247, -3.94126, 0.0 ], [ -46.762246, -3.940853, 0.0 ], [ -46.762221, -3.940327, 0.0 ], [ -46.762197, -3.93992, 0.0 ], [ -46.762148, -3.939442, 0.0 ], [ -46.762099, -3.938796, 0.0 ], [ -46.762026, -3.93803, 0.0 ], [ -46.762, -3.937145, 0.0 ], [ -46.762128, -3.935601, 0.0 ], [ -46.762245, -3.934703, 0.0 ], [ -46.762302, -3.933626, 0.0 ], [ -46.762479, -3.932729, 0.0 ], [ -46.762536, -3.931353, 0.0 ], [ -46.762533, -3.930157, 0.0 ], [ -46.762412, -3.928901, 0.0 ], [ -46.762349, -3.927406, 0.0 ], [ -46.762227, -3.925851, 0.0 ], [ -46.761986, -3.924894, 0.0 ], [ -46.761269, -3.92346, 0.0 ], [ -46.760709, -3.922306, 0.0 ], [ -46.76023, -3.921051, 0.0 ], [ -46.760049, -3.919795, 0.0 ], [ -46.759868, -3.918719, 0.0 ], [ -46.759389, -3.917763, 0.0 ], [ -46.758554, -3.917047, 0.0 ], [ -46.758016, -3.915971, 0.0 ], [ -46.758192, -3.915014, 0.0 ], [ -46.758487, -3.913638, 0.0 ], [ -46.759139, -3.91226, 0.0 ], [ -46.759734, -3.9119, 0.0 ], [ -46.760805, -3.91124, 0.0 ], [ -46.761815, -3.910401, 0.0 ], [ -46.762052, -3.909742, 0.0 ], [ -46.76205, -3.908666, 0.0 ], [ -46.762048, -3.907768, 0.0 ], [ -46.761806, -3.905855, 0.0 ], [ -46.76109, -3.905019, 0.0 ], [ -46.760492, -3.904123, 0.0 ], [ -46.759299, -3.903168, 0.0 ], [ -46.75876, -3.901734, 0.0 ], [ -46.758162, -3.900659, 0.0 ], [ -46.757446, -3.899584, 0.0 ], [ -46.757087, -3.898807, 0.0 ], [ -46.756429, -3.897492, 0.0 ], [ -46.755712, -3.896238, 0.0 ], [ -46.755234, -3.89564, 0.0 ], [ -46.754398, -3.894685, 0.0 ], [ -46.753318, -3.893754, 0.0 ], [ -46.752662, -3.892918, 0.0 ], [ -46.752184, -3.892142, 0.0 ], [ -46.751706, -3.891425, 0.0 ], [ -46.751108, -3.890589, 0.0 ], [ -46.750274, -3.890112, 0.0 ], [ -46.749618, -3.889755, 0.0 ], [ -46.748783, -3.889218, 0.0 ], [ -46.747949, -3.88898, 0.0 ], [ -46.746578, -3.888385, 0.0 ], [ -46.745386, -3.888148, 0.0 ], [ -46.744553, -3.88809, 0.0 ], [ -46.743063, -3.887974, 0.0 ], [ -46.741872, -3.887976, 0.0 ], [ -46.740384, -3.888099, 0.0 ], [ -46.738419, -3.888402, 0.0 ], [ -46.737169, -3.888764, 0.0 ], [ -46.73586, -3.888946, 0.0 ], [ -46.73449, -3.889128, 0.0 ], [ -46.733061, -3.888951, 0.0 ], [ -46.732048, -3.888714, 0.0 ], [ -46.731154, -3.888597, 0.0 ], [ -46.729963, -3.888479, 0.0 ], [ -46.72901, -3.888481, 0.0 ], [ -46.727563, -3.888125, 0.0 ], [ -46.726062, -3.887913, 0.0 ], [ -46.724704, -3.887557, 0.0 ], [ -46.72356, -3.887272, 0.0 ], [ -46.722987, -3.886555, 0.0 ], [ -46.722842, -3.885766, 0.0 ], [ -46.72284, -3.884546, 0.0 ], [ -46.722622, -3.882752, 0.0 ], [ -46.722047, -3.881604, 0.0 ], [ -46.721116, -3.880314, 0.0 ], [ -46.720042, -3.879455, 0.0 ], [ -46.717897, -3.878814, 0.0 ], [ -46.716037, -3.877956, 0.0 ], [ -46.714464, -3.877672, 0.0 ], [ -46.713105, -3.876885, 0.0 ], [ -46.712388, -3.87581, 0.0 ], [ -46.711601, -3.875166, 0.0 ], [ -46.709957, -3.87481, 0.0 ], [ -46.70867, -3.874813, 0.0 ], [ -46.707313, -3.875246, 0.0 ], [ -46.706314, -3.876038, 0.0 ], [ -46.705602, -3.876972, 0.0 ], [ -46.704818, -3.878194, 0.0 ], [ -46.703819, -3.87877, 0.0 ], [ -46.702461, -3.87906, 0.0 ], [ -46.699817, -3.878994, 0.0 ], [ -46.698745, -3.878996, 0.0 ], [ -46.697313, -3.878597, 0.0 ], [ -46.696669, -3.878025, 0.0 ], [ -46.696381, -3.876805, 0.0 ], [ -46.696236, -3.875944, 0.0 ], [ -46.695734, -3.875083, 0.0 ], [ -46.69516, -3.873936, 0.0 ], [ -46.694801, -3.873076, 0.0 ], [ -46.694729, -3.872501, 0.0 ], [ -46.694654, -3.87121, 0.0 ], [ -46.694937, -3.86963, 0.0 ], [ -46.695507, -3.86848, 0.0 ], [ -46.695934, -3.867546, 0.0 ], [ -46.696004, -3.866972, 0.0 ], [ -46.696215, -3.865392, 0.0 ], [ -46.696356, -3.864603, 0.0 ], [ -46.696354, -3.863454, 0.0 ], [ -46.69621, -3.862593, 0.0 ], [ -46.695635, -3.861015, 0.0 ], [ -46.69606, -3.85989, 0.0 ], [ -46.696533, -3.858549, 0.0 ], [ -46.696053, -3.856636, 0.0 ], [ -46.695574, -3.855106, 0.0 ], [ -46.694999, -3.853671, 0.0 ], [ -46.694615, -3.852141, 0.0 ], [ -46.694897, -3.849939, 0.0 ], [ -46.695656, -3.848502, 0.0 ], [ -46.696414, -3.846204, 0.0 ], [ -46.69679, -3.843715, 0.0 ], [ -46.696976, -3.841226, 0.0 ], [ -46.696778, -3.837877, 0.0 ], [ -46.696299, -3.836346, 0.0 ], [ -46.69601, -3.834528, 0.0 ], [ -46.694767, -3.83233, 0.0 ], [ -46.694001, -3.830513, 0.0 ], [ -46.693427, -3.829461, 0.0 ], [ -46.694946, -3.826587, 0.0 ], [ -46.698749, -3.82256, 0.0 ], [ -46.703322, -3.822359, 0.0 ], [ -46.70656, -3.821587, 0.0 ], [ -46.711705, -3.821577, 0.0 ], [ -46.713417, -3.820234, 0.0 ], [ -46.716844, -3.818696, 0.0 ], [ -46.721224, -3.816964, 0.0 ], [ -46.723314, -3.814089, 0.0 ], [ -46.725977, -3.811978, 0.0 ], [ -46.727497, -3.809678, 0.0 ], [ -46.728639, -3.808719, 0.0 ], [ -46.729395, -3.805846, 0.0 ], [ -46.730342, -3.802782, 0.0 ], [ -46.732813, -3.799906, 0.0 ], [ -46.73433, -3.796266, 0.0 ], [ -46.734579, -3.795763, 0.0 ], [ -46.7349, -3.795224, 0.0 ], [ -46.735362, -3.794254, 0.0 ], [ -46.735648, -3.793931, 0.0 ], [ -46.736039, -3.793033, 0.0 ], [ -46.736252, -3.792566, 0.0 ], [ -46.736251, -3.791955, 0.0 ], [ -46.73625, -3.791597, 0.0 ], [ -46.736571, -3.791165, 0.0 ], [ -46.736856, -3.790662, 0.0 ], [ -46.737212, -3.790123, 0.0 ], [ -46.737889, -3.789153, 0.0 ], [ -46.738138, -3.788542, 0.0 ], [ -46.738386, -3.78786, 0.0 ], [ -46.738635, -3.787106, 0.0 ], [ -46.738741, -3.786424, 0.0 ], [ -46.738918, -3.785598, 0.0 ], [ -46.739012, -3.784904, 0.0 ], [ -46.739082, -3.784353, 0.0 ], [ -46.739341, -3.782845, 0.0 ], [ -46.739197, -3.782032, 0.0 ], [ -46.739053, -3.781458, 0.0 ], [ -46.73898, -3.780813, 0.0 ], [ -46.739026, -3.780023, 0.0 ], [ -46.739239, -3.779209, 0.0 ], [ -46.73938, -3.778563, 0.0 ], [ -46.739475, -3.778156, 0.0 ], [ -46.739294, -3.777229, 0.0 ], [ -46.738994, -3.775974, 0.0 ], [ -46.738635, -3.775077, 0.0 ], [ -46.738276, -3.77424, 0.0 ], [ -46.737858, -3.773643, 0.0 ], [ -46.737201, -3.772867, 0.0 ], [ -46.736604, -3.77209, 0.0 ], [ -46.73577, -3.771494, 0.0 ], [ -46.734935, -3.771137, 0.0 ], [ -46.733683, -3.770421, 0.0 ], [ -46.732729, -3.769646, 0.0 ], [ -46.73106, -3.768393, 0.0 ], [ -46.729867, -3.767737, 0.0 ], [ -46.728854, -3.766962, 0.0 ], [ -46.728195, -3.765408, 0.0 ], [ -46.728134, -3.764511, 0.0 ], [ -46.728133, -3.763793, 0.0 ], [ -46.727715, -3.763256, 0.0 ], [ -46.727297, -3.762838, 0.0 ], [ -46.727237, -3.76224, 0.0 ], [ -46.727235, -3.761223, 0.0 ], [ -46.727173, -3.760326, 0.0 ], [ -46.726813, -3.758891, 0.0 ], [ -46.725978, -3.758235, 0.0 ], [ -46.724905, -3.757519, 0.0 ], [ -46.724011, -3.756863, 0.0 ], [ -46.723534, -3.756624, 0.0 ], [ -46.722878, -3.756028, 0.0 ], [ -46.722638, -3.75543, 0.0 ], [ -46.722339, -3.754892, 0.0 ], [ -46.721803, -3.754415, 0.0 ], [ -46.721147, -3.754177, 0.0 ], [ -46.72067, -3.753998, 0.0 ], [ -46.720074, -3.753521, 0.0 ], [ -46.719954, -3.753043, 0.0 ], [ -46.719775, -3.752624, 0.0 ], [ -46.719654, -3.751907, 0.0 ], [ -46.719594, -3.751369, 0.0 ], [ -46.719532, -3.750591, 0.0 ], [ -46.718935, -3.749755, 0.0 ], [ -46.71828, -3.749457, 0.0 ], [ -46.717684, -3.749159, 0.0 ], [ -46.716909, -3.748622, 0.0 ], [ -46.716133, -3.747966, 0.0 ], [ -46.714822, -3.747191, 0.0 ], [ -46.714106, -3.746534, 0.0 ], [ -46.713449, -3.745339, 0.0 ], [ -46.713446, -3.744143, 0.0 ], [ -46.713564, -3.743305, 0.0 ], [ -46.713562, -3.742408, 0.0 ], [ -46.713264, -3.74199, 0.0 ], [ -46.712964, -3.740914, 0.0 ], [ -46.712784, -3.740256, 0.0 ], [ -46.712246, -3.739181, 0.0 ], [ -46.712006, -3.738224, 0.0 ], [ -46.711767, -3.737567, 0.0 ], [ -46.711408, -3.736969, 0.0 ], [ -46.710812, -3.736432, 0.0 ], [ -46.710036, -3.735656, 0.0 ], [ -46.70932, -3.73482, 0.0 ], [ -46.708842, -3.734163, 0.0 ], [ -46.708484, -3.733446, 0.0 ], [ -46.707946, -3.73249, 0.0 ], [ -46.707528, -3.731713, 0.0 ], [ -46.706943, -3.730759, 0.0 ], [ -46.706513, -3.730006, 0.0 ], [ -46.706297, -3.729576, 0.0 ], [ -46.706117, -3.728858, 0.0 ], [ -46.705866, -3.72832, 0.0 ], [ -46.705686, -3.727711, 0.0 ], [ -46.705292, -3.727173, 0.0 ], [ -46.704684, -3.72642, 0.0 ], [ -46.704182, -3.72574, 0.0 ], [ -46.703646, -3.72531, 0.0 ], [ -46.703109, -3.724916, 0.0 ], [ -46.702571, -3.724092, 0.0 ], [ -46.70232, -3.723482, 0.0 ], [ -46.70189, -3.722622, 0.0 ], [ -46.701567, -3.72194, 0.0 ], [ -46.701065, -3.720972, 0.0 ], [ -46.700742, -3.720147, 0.0 ], [ -46.700634, -3.719609, 0.0 ], [ -46.70081, -3.71864, 0.0 ], [ -46.701059, -3.717922, 0.0 ], [ -46.701415, -3.716988, 0.0 ], [ -46.701769, -3.715659, 0.0 ], [ -46.701983, -3.715121, 0.0 ], [ -46.701981, -3.714367, 0.0 ], [ -46.70198, -3.713577, 0.0 ], [ -46.701763, -3.712609, 0.0 ], [ -46.701297, -3.711677, 0.0 ], [ -46.700653, -3.710888, 0.0 ], [ -46.700151, -3.710171, 0.0 ], [ -46.699542, -3.709383, 0.0 ], [ -46.699398, -3.708809, 0.0 ], [ -46.699719, -3.708521, 0.0 ], [ -46.700219, -3.708305, 0.0 ], [ -46.700754, -3.708053, 0.0 ], [ -46.701075, -3.707657, 0.0 ], [ -46.70136, -3.707154, 0.0 ], [ -46.701609, -3.706651, 0.0 ], [ -46.701608, -3.706041, 0.0 ], [ -46.701428, -3.705324, 0.0 ], [ -46.70082, -3.704858, 0.0 ], [ -46.700212, -3.704501, 0.0 ], [ -46.69964, -3.704251, 0.0 ], [ -46.699031, -3.703785, 0.0 ], [ -46.698602, -3.703284, 0.0 ], [ -46.698244, -3.702782, 0.0 ], [ -46.697849, -3.702173, 0.0 ], [ -46.697527, -3.701707, 0.0 ], [ -46.697205, -3.701241, 0.0 ], [ -46.696918, -3.70099, 0.0 ], [ -46.696418, -3.700883, 0.0 ], [ -46.695751, -3.700789, 0.0 ], [ -46.695108, -3.700742, 0.0 ], [ -46.694631, -3.700695, 0.0 ], [ -46.694107, -3.700672, 0.0 ], [ -46.693655, -3.700625, 0.0 ], [ -46.692798, -3.700723, 0.0 ], [ -46.692369, -3.700795, 0.0 ], [ -46.691702, -3.700821, 0.0 ], [ -46.691226, -3.700845, 0.0 ], [ -46.690774, -3.70087, 0.0 ], [ -46.689964, -3.7008, 0.0 ], [ -46.68932, -3.700466, 0.0 ], [ -46.688867, -3.70006, 0.0 ], [ -46.688627, -3.699439, 0.0 ], [ -46.688507, -3.698578, 0.0 ], [ -46.68841, -3.697884, 0.0 ], [ -46.688242, -3.697214, 0.0 ], [ -46.688146, -3.69664, 0.0 ], [ -46.688025, -3.695947, 0.0 ], [ -46.687976, -3.695325, 0.0 ], [ -46.687976, -3.694798, 0.0 ], [ -46.688117, -3.694152, 0.0 ], [ -46.68814, -3.693673, 0.0 ], [ -46.688211, -3.693171, 0.0 ], [ -46.688352, -3.692225, 0.0 ], [ -46.688529, -3.691579, 0.0 ], [ -46.688706, -3.690861, 0.0 ], [ -46.688848, -3.690179, 0.0 ], [ -46.688775, -3.689353, 0.0 ], [ -46.688773, -3.688564, 0.0 ], [ -46.688915, -3.687595, 0.0 ], [ -46.689092, -3.686769, 0.0 ], [ -46.689269, -3.686087, 0.0 ], [ -46.689446, -3.685225, 0.0 ], [ -46.689659, -3.684507, 0.0 ], [ -46.689908, -3.684075, 0.0 ], [ -46.690229, -3.683537, 0.0 ], [ -46.690478, -3.682998, 0.0 ], [ -46.69087, -3.682387, 0.0 ], [ -46.691297, -3.68174, 0.0 ], [ -46.691582, -3.681309, 0.0 ], [ -46.691866, -3.68059, 0.0 ], [ -46.691936, -3.679585, 0.0 ], [ -46.691934, -3.678724, 0.0 ], [ -46.69204, -3.678114, 0.0 ], [ -46.692111, -3.677504, 0.0 ], [ -46.692217, -3.676929, 0.0 ], [ -46.69243, -3.676247, 0.0 ], [ -46.692679, -3.675529, 0.0 ], [ -46.692749, -3.67499, 0.0 ], [ -46.692712, -3.674201, 0.0 ], [ -46.692709, -3.672765, 0.0 ], [ -46.692529, -3.672119, 0.0 ], [ -46.692099, -3.671223, 0.0 ], [ -46.691812, -3.670685, 0.0 ], [ -46.691454, -3.670076, 0.0 ], [ -46.69106, -3.66961, 0.0 ], [ -46.69038, -3.669037, 0.0 ], [ -46.689522, -3.668608, 0.0 ], [ -46.688735, -3.668179, 0.0 ], [ -46.68802, -3.668001, 0.0 ], [ -46.687413, -3.66793, 0.0 ], [ -46.686841, -3.667787, 0.0 ], [ -46.686305, -3.667609, 0.0 ], [ -46.685912, -3.66743, 0.0 ], [ -46.685589, -3.667072, 0.0 ], [ -46.685231, -3.666678, 0.0 ], [ -46.684659, -3.666069, 0.0 ], [ -46.684122, -3.66589, 0.0 ], [ -46.683479, -3.665748, 0.0 ], [ -46.682871, -3.665498, 0.0 ], [ -46.682335, -3.665212, 0.0 ], [ -46.681906, -3.664926, 0.0 ], [ -46.681262, -3.664496, 0.0 ], [ -46.680654, -3.664174, 0.0 ], [ -46.67976, -3.663674, 0.0 ], [ -46.678938, -3.663173, 0.0 ], [ -46.678687, -3.662922, 0.0 ], [ -46.678329, -3.662671, 0.0 ], [ -46.677864, -3.662313, 0.0 ], [ -46.677435, -3.661955, 0.0 ], [ -46.677006, -3.661669, 0.0 ], [ -46.676576, -3.661383, 0.0 ], [ -46.676147, -3.66124, 0.0 ], [ -46.675075, -3.660703, 0.0 ], [ -46.674324, -3.66031, 0.0 ], [ -46.673501, -3.659845, 0.0 ], [ -46.673072, -3.659379, 0.0 ], [ -46.672642, -3.658626, 0.0 ], [ -46.672391, -3.658053, 0.0 ], [ -46.671925, -3.657623, 0.0 ], [ -46.671389, -3.657086, 0.0 ], [ -46.670852, -3.656728, 0.0 ], [ -46.670637, -3.656297, 0.0 ], [ -46.6706, -3.655687, 0.0 ], [ -46.670846, -3.654916, 0.0 ], [ -46.670941, -3.654581, 0.0 ], [ -46.671035, -3.654126, 0.0 ], [ -46.671058, -3.653648, 0.0 ], [ -46.670986, -3.653146, 0.0 ], [ -46.670866, -3.652428, 0.0 ], [ -46.67065, -3.651854, 0.0 ], [ -46.670435, -3.651161, 0.0 ], [ -46.670027, -3.649917, 0.0 ], [ -46.670002, -3.649176, 0.0 ], [ -46.669978, -3.648769, 0.0 ], [ -46.669953, -3.648362, 0.0 ], [ -46.669929, -3.648099, 0.0 ], [ -46.66988, -3.647597, 0.0 ], [ -46.669879, -3.647022, 0.0 ], [ -46.66983, -3.646161, 0.0 ], [ -46.669733, -3.645444, 0.0 ], [ -46.669565, -3.644702, 0.0 ], [ -46.669159, -3.643889, 0.0 ], [ -46.668825, -3.643579, 0.0 ], [ -46.668038, -3.643269, 0.0 ], [ -46.667514, -3.642935, 0.0 ], [ -46.667251, -3.642625, 0.0 ], [ -46.66737, -3.64229, 0.0 ], [ -46.667488, -3.64205, 0.0 ], [ -46.667607, -3.641643, 0.0 ], [ -46.667463, -3.641021, 0.0 ], [ -46.667462, -3.640567, 0.0 ], [ -46.667604, -3.639992, 0.0 ], [ -46.667603, -3.639538, 0.0 ], [ -46.667697, -3.639155, 0.0 ], [ -46.667935, -3.638867, 0.0 ], [ -46.668268, -3.638531, 0.0 ], [ -46.668553, -3.638124, 0.0 ], [ -46.668719, -3.637861, 0.0 ], [ -46.668533, -3.637073, 0.0 ], [ -46.668414, -3.636834, 0.0 ], [ -46.668103, -3.636404, 0.0 ], [ -46.667698, -3.63607, 0.0 ], [ -46.667316, -3.635808, 0.0 ], [ -46.666839, -3.635569, 0.0 ], [ -46.666196, -3.635283, 0.0 ], [ -46.665409, -3.634878, 0.0 ], [ -46.664694, -3.634568, 0.0 ], [ -46.664289, -3.634402, 0.0 ], [ -46.663479, -3.634092, 0.0 ], [ -46.662407, -3.633807, 0.0 ], [ -46.661906, -3.633545, 0.0 ], [ -46.66131, -3.632995, 0.0 ], [ -46.661047, -3.632517, 0.0 ], [ -46.66034, -3.631528, 0.0 ], [ -46.659939, -3.63084, 0.0 ], [ -46.659366, -3.629979, 0.0 ], [ -46.658678, -3.629234, 0.0 ], [ -46.65782, -3.628432, 0.0 ], [ -46.658123, -3.627733, 0.0 ], [ -46.6588, -3.627265, 0.0 ], [ -46.659228, -3.626511, 0.0 ], [ -46.65969, -3.625397, 0.0 ], [ -46.659974, -3.624356, 0.0 ], [ -46.66015, -3.623028, 0.0 ], [ -46.66022, -3.622059, 0.0 ], [ -46.661075, -3.620944, 0.0 ], [ -46.661396, -3.620441, 0.0 ], [ -46.661823, -3.619866, 0.0 ], [ -46.662537, -3.619219, 0.0 ], [ -46.662767, -3.618898, 0.0 ], [ -46.663759, -3.618636, 0.0 ], [ -46.66508, -3.618095, 0.0 ], [ -46.666222, -3.617734, 0.0 ], [ -46.667256, -3.616548, 0.0 ], [ -46.668041, -3.616044, 0.0 ], [ -46.668969, -3.615647, 0.0 ], [ -46.669647, -3.615287, 0.0 ], [ -46.669681, -3.614498, 0.0 ], [ -46.670324, -3.614102, 0.0 ], [ -46.67118, -3.613669, 0.0 ], [ -46.671536, -3.613023, 0.0 ], [ -46.671963, -3.612017, 0.0 ], [ -46.672748, -3.611549, 0.0 ], [ -46.673318, -3.610902, 0.0 ], [ -46.67371, -3.610147, 0.0 ], [ -46.673815, -3.609322, 0.0 ], [ -46.67392, -3.608065, 0.0 ], [ -46.673918, -3.606989, 0.0 ], [ -46.67431, -3.606306, 0.0 ], [ -46.674774, -3.605875, 0.0 ], [ -46.675165, -3.605264, 0.0 ], [ -46.675464, -3.604329, 0.0 ], [ -46.676105, -3.603514, 0.0 ], [ -46.676508, -3.602413, 0.0 ], [ -46.676554, -3.60148, 0.0 ], [ -46.676813, -3.599996, 0.0 ], [ -46.676907, -3.599397, 0.0 ], [ -46.677382, -3.598487, 0.0 ], [ -46.677713, -3.597386, 0.0 ], [ -46.67814, -3.596416, 0.0 ], [ -46.67846, -3.595303, 0.0 ], [ -46.678815, -3.594441, 0.0 ], [ -46.678957, -3.593651, 0.0 ], [ -46.67899, -3.592323, 0.0 ], [ -46.678667, -3.591355, 0.0 ], [ -46.678165, -3.590638, 0.0 ], [ -46.67779, -3.590189, 0.0 ], [ -46.67767, -3.589722, 0.0 ], [ -46.677823, -3.589184, 0.0 ], [ -46.678156, -3.588741, 0.0 ], [ -46.678691, -3.588165, 0.0 ], [ -46.679214, -3.587722, 0.0 ], [ -46.679594, -3.587386, 0.0 ], [ -46.679724, -3.586943, 0.0 ], [ -46.679544, -3.585903, 0.0 ], [ -46.679007, -3.585401, 0.0 ], [ -46.678292, -3.5849, 0.0 ], [ -46.677576, -3.584327, 0.0 ], [ -46.677004, -3.58361, 0.0 ], [ -46.676645, -3.582929, 0.0 ], [ -46.676644, -3.58214, 0.0 ], [ -46.676641, -3.580668, 0.0 ], [ -46.676675, -3.579556, 0.0 ], [ -46.676281, -3.578874, 0.0 ], [ -46.675387, -3.578338, 0.0 ], [ -46.674289, -3.577405, 0.0 ], [ -46.67324, -3.57645, 0.0 ], [ -46.67262, -3.576021, 0.0 ], [ -46.67119, -3.575162, 0.0 ], [ -46.670569, -3.574302, 0.0 ], [ -46.670329, -3.573345, 0.0 ], [ -46.670089, -3.572388, 0.0 ], [ -46.669422, -3.571911, 0.0 ], [ -46.668707, -3.571673, 0.0 ], [ -46.667372, -3.571197, 0.0 ], [ -46.665943, -3.570721, 0.0 ], [ -46.664608, -3.570197, 0.0 ], [ -46.663322, -3.569864, 0.0 ], [ -46.662083, -3.569532, 0.0 ], [ -46.660987, -3.569294, 0.0 ], [ -46.660082, -3.569105, 0.0 ], [ -46.659319, -3.568819, 0.0 ], [ -46.658413, -3.568294, 0.0 ], [ -46.658078, -3.567481, 0.0 ], [ -46.657839, -3.566573, 0.0 ], [ -46.657695, -3.566142, 0.0 ], [ -46.656884, -3.565617, 0.0 ], [ -46.656407, -3.565092, 0.0 ], [ -46.656264, -3.564757, 0.0 ], [ -46.65531, -3.563897, 0.0 ], [ -46.655118, -3.563228, 0.0 ], [ -46.654926, -3.562606, 0.0 ], [ -46.654688, -3.562415, 0.0 ], [ -46.653735, -3.562082, 0.0 ], [ -46.653306, -3.562082, 0.0 ], [ -46.652876, -3.561413, 0.0 ], [ -46.652732, -3.560696, 0.0 ], [ -46.65235, -3.559883, 0.0 ], [ -46.651481, -3.558851, 0.0 ], [ -46.651003, -3.557895, 0.0 ], [ -46.650716, -3.557034, 0.0 ], [ -46.650429, -3.556556, 0.0 ], [ -46.649523, -3.556079, 0.0 ], [ -46.648427, -3.55565, 0.0 ], [ -46.647236, -3.555413, 0.0 ], [ -46.646332, -3.555797, 0.0 ], [ -46.645905, -3.556468, 0.0 ], [ -46.645572, -3.557091, 0.0 ], [ -46.645049, -3.557427, 0.0 ], [ -46.644287, -3.557715, 0.0 ], [ -46.642907, -3.558148, 0.0 ], [ -46.642383, -3.558341, 0.0 ], [ -46.641002, -3.558391, 0.0 ], [ -46.640431, -3.558679, 0.0 ], [ -46.639814, -3.559494, 0.0 ], [ -46.639053, -3.560357, 0.0 ], [ -46.638625, -3.56074, 0.0 ], [ -46.636912, -3.561557, 0.0 ], [ -46.636008, -3.561893, 0.0 ], [ -46.63496, -3.561943, 0.0 ], [ -46.633578, -3.561563, 0.0 ], [ -46.632625, -3.561421, 0.0 ], [ -46.631339, -3.560897, 0.0 ], [ -46.630242, -3.560324, 0.0 ], [ -46.628573, -3.559179, 0.0 ], [ -46.627571, -3.558271, 0.0 ], [ -46.627189, -3.557459, 0.0 ], [ -46.626711, -3.556454, 0.0 ], [ -46.626567, -3.555641, 0.0 ], [ -46.626565, -3.554828, 0.0 ], [ -46.626326, -3.554015, 0.0 ], [ -46.625943, -3.553154, 0.0 ], [ -46.624704, -3.552582, 0.0 ], [ -46.623703, -3.552344, 0.0 ], [ -46.622607, -3.551916, 0.0 ], [ -46.620654, -3.551632, 0.0 ], [ -46.619176, -3.551012, 0.0 ], [ -46.61689, -3.550729, 0.0 ], [ -46.616126, -3.550751, 0.0 ], [ -46.615292, -3.5508, 0.0 ], [ -46.614793, -3.551064, 0.0 ], [ -46.614221, -3.551185, 0.0 ], [ -46.613721, -3.55109, 0.0 ], [ -46.613244, -3.55078, 0.0 ], [ -46.612791, -3.55035, 0.0 ], [ -46.612004, -3.549825, 0.0 ], [ -46.611337, -3.549347, 0.0 ], [ -46.610526, -3.548727, 0.0 ], [ -46.60993, -3.54801, 0.0 ], [ -46.609357, -3.547556, 0.0 ], [ -46.608785, -3.546959, 0.0 ], [ -46.608045, -3.546219, 0.0 ], [ -46.607234, -3.545406, 0.0 ], [ -46.606638, -3.545072, 0.0 ], [ -46.605924, -3.54493, 0.0 ], [ -46.605042, -3.544884, 0.0 ], [ -46.604233, -3.545005, 0.0 ], [ -46.603137, -3.544911, 0.0 ], [ -46.602184, -3.544506, 0.0 ], [ -46.601612, -3.544244, 0.0 ], [ -46.600874, -3.544006, 0.0 ], [ -46.599516, -3.543912, 0.0 ], [ -46.598802, -3.544201, 0.0 ], [ -46.59766, -3.544801, 0.0 ], [ -46.597137, -3.545496, 0.0 ], [ -46.596782, -3.546525, 0.0 ], [ -46.596237, -3.547962, 0.0 ], [ -46.596167, -3.549134, 0.0 ], [ -46.595978, -3.550092, 0.0 ], [ -46.595432, -3.550643, 0.0 ], [ -46.595386, -3.5516, 0.0 ], [ -46.595411, -3.552342, 0.0 ], [ -46.595341, -3.553132, 0.0 ], [ -46.595033, -3.554137, 0.0 ], [ -46.594701, -3.555143, 0.0 ], [ -46.594107, -3.555814, 0.0 ], [ -46.593536, -3.556317, 0.0 ], [ -46.593031, -3.556744, 0.0 ], [ -46.592461, -3.557846, 0.0 ], [ -46.592128, -3.558181, 0.0 ], [ -46.591509, -3.558182, 0.0 ], [ -46.590318, -3.557993, 0.0 ], [ -46.589603, -3.557898, 0.0 ], [ -46.588698, -3.557804, 0.0 ], [ -46.587603, -3.557758, 0.0 ], [ -46.587031, -3.557855, 0.0 ], [ -46.586223, -3.558431, 0.0 ], [ -46.585461, -3.558767, 0.0 ], [ -46.58489, -3.559055, 0.0 ], [ -46.584271, -3.559056, 0.0 ], [ -46.583175, -3.558962, 0.0 ], [ -46.581991, -3.55903, 0.0 ], [ -46.581455, -3.559181, 0.0 ], [ -46.580979, -3.559182, 0.0 ], [ -46.580771, -3.559212, 0.0 ], [ -46.580323, -3.558842, 0.0 ], [ -46.57975, -3.557981, 0.0 ], [ -46.579178, -3.557264, 0.0 ], [ -46.578534, -3.556907, 0.0 ], [ -46.577465, -3.556841, 0.0 ], [ -46.576806, -3.557315, 0.0 ] ] ] } },
{ "type": "Feature", "properties": { "nome_federal": null, "nome_estadual": "APA da Baixada Maranhense", "categoria": "Área de Proteção Ambiental", "grupo": "Uso Sustentável", "esfera": "Estadual", "ano_criacao": "1991" }, "geometry": { "type": "MultiPolygon", "coordinates": [ [ [ [ -44.404348, -2.822626, 0.0 ], [ -44.40493, -2.823664, 0.0 ], [ -44.405027, -2.823616, 0.0 ], [ -44.406748, -2.8232, 0.0 ], [ -44.407576, -2.822824, 0.0 ], [ -44.407723, -2.822244, 0.0 ], [ -44.407928, -2.821527, 0.0 ], [ -44.408201, -2.819637, 0.0 ], [ -44.408192, -2.817701, 0.0 ], [ -44.408664, -2.815406, 0.0 ], [ -44.409081, -2.814155, 0.0 ], [ -44.405744, -2.813838, 0.0 ], [ -44.405505, -2.813982, 0.0 ], [ -44.404902, -2.814143, 0.0 ], [ -44.404291, -2.814182, 0.0 ], [ -44.403786, -2.814233, 0.0 ], [ -44.404348, -2.822626, 0.0 ] ] ], [ [ [ -44.405847, -2.825301, 0.0 ], [ -44.406081, -2.825303, 0.0 ], [ -44.405834, -2.825277, 0.0 ], [ -44.405847, -2.825301, 0.0 ] ] ], [ [ [ -44.405541, -2.893316, 0.0 ], [ -44.40491, -2.893769, 0.0 ], [ -44.404903, -2.89632, 0.0 ], [ -44.405082, -2.897045, 0.0 ], [ -44.405262, -2.898496, 0.0 ], [ -44.405892, -2.899312, 0.0 ], [ -44.406433, -2.90031, 0.0 ], [ -44.406523, -2.901126, 0.0 ], [ -44.405621, -2.903212, 0.0 ], [ -44.405529, -2.904209, 0.0 ], [ -44.405799, -2.905115, 0.0 ], [ -44.40607, -2.906294, 0.0 ], [ -44.40706, -2.908017, 0.0 ], [ -44.407691, -2.909287, 0.0 ], [ -44.407781, -2.909741, 0.0 ], [ -44.40778, -2.910647, 0.0 ], [ -44.408322, -2.91092, 0.0 ], [ -44.408953, -2.910195, 0.0 ], [ -44.409314, -2.90956, 0.0 ], [ -44.409798, -2.90929, 0.0 ], [ -44.407612, -2.90289, 0.0 ], [ -44.40579, -2.893291, 0.0 ], [ -44.405541, -2.893316, 0.0 ] ] ], [ [ [ -44.409853, -2.91219, 0.0 ], [ -44.409944, -2.912824, 0.0 ], [ -44.410395, -2.913369, 0.0 ], [ -44.411206, -2.914003, 0.0 ], [ -44.411385, -2.915182, 0.0 ], [ -44.412017, -2.915818, 0.0 ], [ -44.412146, -2.915818, 0.0 ], [ -44.411565, -2.914464, 0.0 ], [ -44.411349, -2.913829, 0.0 ], [ -44.410395, -2.911036, 0.0 ], [ -44.409853, -2.91219, 0.0 ] ] ], [ [ [ -44.412737, -2.918266, 0.0 ], [ -44.412376, -2.919173, 0.0 ], [ -44.411744, -2.919807, 0.0 ], [ -44.412014, -2.920261, 0.0 ], [ -44.412375, -2.920261, 0.0 ], [ -44.412826, -2.920714, 0.0 ], [ -44.412916, -2.921258, 0.0 ], [ -44.41458, -2.921499, 0.0 ], [ -44.412738, -2.9172, 0.0 ], [ -44.412737, -2.918266, 0.0 ] ] ], [ [ [ -44.413816, -2.923526, 0.0 ], [ -44.413816, -2.924251, 0.0 ], [ -44.414447, -2.924795, 0.0 ], [ -44.418413, -2.929785, 0.0 ], [ -44.418827, -2.930434, 0.0 ], [ -44.416061, -2.924955, 0.0 ], [ -44.41491, -2.922269, 0.0 ], [ -44.413816, -2.923526, 0.0 ] ] ], [ [ [ -44.419853, -2.934137, 0.0 ], [ -44.420482, -2.935112, 0.0 ], [ -44.420662, -2.936018, 0.0 ], [ -44.421202, -2.936562, 0.0 ], [ -44.421922, -2.938829, 0.0 ], [ -44.422102, -2.940098, 0.0 ], [ -44.422462, -2.941185, 0.0 ], [ -44.422786, -2.941651, 0.0 ], [ -44.422972, -2.9415, 0.0 ], [ -44.4203, -2.933351, 0.0 ], [ -44.41928, -2.931331, 0.0 ], [ -44.419853, -2.934137, 0.0 ] ] ], [ [ [ -44.423556, -2.943285, 0.0 ], [ -44.423611, -2.943157, 0.0 ], [ -44.42341, -2.942491, 0.0 ], [ -44.423242, -2.942032, 0.0 ], [ -44.423102, -2.942116, 0.0 ], [ -44.423556, -2.943285, 0.0 ] ] ], [ [ [ -44.423903, -2.944177, 0.0 ], [ -44.426155, -2.948076, 0.0 ], [ -44.428685, -2.951222, 0.0 ], [ -44.431318, -2.954541, 0.0 ], [ -44.429842, -2.952052, 0.0 ], [ -44.426486, -2.947446, 0.0 ], [ -44.424936, -2.945106, 0.0 ], [ -44.423855, -2.943474, 0.0 ], [ -44.423662, -2.943557, 0.0 ], [ -44.423903, -2.944177, 0.0 ] ] ], [ [ [ -44.432071, -2.956798, 0.0 ], [ -44.432124, -2.956523, 0.0 ], [ -44.431892, -2.95551, 0.0 ], [ -44.431523, -2.954887, 0.0 ], [ -44.432071, -2.956798, 0.0 ] ] ], [ [ [ -44.432968, -2.959923, 0.0 ], [ -44.441309, -2.970563, 0.0 ], [ -44.439003, -2.966462, 0.0 ], [ -44.435545, -2.962235, 0.0 ], [ -44.433021, -2.958534, 0.0 ], [ -44.432812, -2.958032, 0.0 ], [ -44.432693, -2.95757, 0.0 ], [ -44.432498, -2.957574, 0.0 ], [ -44.432377, -2.957864, 0.0 ], [ -44.432968, -2.959923, 0.0 ] ] ], [ [ [ -44.443632, -2.974914, 0.0 ], [ -44.446173, -2.979456, 0.0 ], [ -44.446311, -2.979275, 0.0 ], [ -44.446053, -2.978763, 0.0 ], [ -44.44377, -2.97494, 0.0 ], [ -44.443151, -2.973838, 0.0 ], [ -44.443632, -2.974914, 0.0 ] ] ], [ [ [ -44.447456, -2.981749, 0.0 ], [ -44.454803, -2.990599, 0.0 ], [ -44.461922, -2.997582, 0.0 ], [ -44.462936, -2.998246, 0.0 ], [ -44.462975, -2.998109, 0.0 ], [ -44.462931, -2.997843, 0.0 ], [ -44.462614, -2.997591, 0.0 ], [ -44.462959, -2.997581, 0.0 ], [ -44.459523, -2.994277, 0.0 ], [ -44.456142, -2.991073, 0.0 ], [ -44.454562, -2.989693, 0.0 ], [ -44.451126, -2.985084, 0.0 ], [ -44.449889, -2.983585, 0.0 ], [ -44.447951, -2.981311, 0.0 ], [ -44.447028, -2.980087, 0.0 ], [ -44.446639, -2.980289, 0.0 ], [ -44.447456, -2.981749, 0.0 ] ] ], [ [ [ -44.464959, -2.999572, 0.0 ], [ -44.476232, -3.010788, 0.0 ], [ -44.5, -3.1, 0.0 ], [ -44.616667, -3.4, 0.0 ], [ -44.683333, -3.566667, 0.0 ], [ -44.55, -3.85, 0.0 ], [ -44.999655, -4.00418, 0.0 ], [ -45.55, -4.0, 0.0 ], [ -45.283333, -3.666667, 0.0 ], [ -45.5, -3.633333, 0.0 ], [ -45.416667, -3.433333, 0.0 ], [ -45.283333, -3.433333, 0.0 ], [ -45.283333, -3.333333, 0.0 ], [ -45.45, -3.25, 0.0 ], [ -45.45, -3.216667, 0.0 ], [ -45.25, -3.216667, 0.0 ], [ -45.166667, -3.266667, 0.0 ], [ -45.166667, -3.133333, 0.0 ], [ -45.083333, -3.133333, 0.0 ], [ -45.0, -3.0, 0.0 ], [ -44.916667, -3.0, 0.0 ], [ -45.030828, -2.935246, 0.0 ], [ -45.030844, -2.93522, 0.0 ], [ -45.031094, -2.934179, 0.0 ], [ -45.030058, -2.933389, 0.0 ], [ -45.02963, -2.932743, 0.0 ], [ -45.028987, -2.932204, 0.0 ], [ -45.028058, -2.931845, 0.0 ], [ -45.02713, -2.931342, 0.0 ], [ -45.026951, -2.930624, 0.0 ], [ -45.02713, -2.929691, 0.0 ], [ -45.027237, -2.928757, 0.0 ], [ -45.027416, -2.927429, 0.0 ], [ -45.027558, -2.926603, 0.0 ], [ -45.027773, -2.925669, 0.0 ], [ -45.028344, -2.924628, 0.0 ], [ -45.028772, -2.923982, 0.0 ], [ -45.029415, -2.923515, 0.0 ], [ -45.02938, -2.923192, 0.0 ], [ -45.028844, -2.922833, 0.0 ], [ -45.028451, -2.922079, 0.0 ], [ -45.027523, -2.921827, 0.0 ], [ -45.02738, -2.921073, 0.0 ], [ -45.026808, -2.92075, 0.0 ], [ -45.025915, -2.920571, 0.0 ], [ -45.024915, -2.920463, 0.0 ], [ -45.024201, -2.920319, 0.0 ], [ -45.02363, -2.919709, 0.0 ], [ -45.022844, -2.91917, 0.0 ], [ -45.022023, -2.918452, 0.0 ], [ -45.022286, -2.917841, 0.0 ], [ -45.02275, -2.917051, 0.0 ], [ -45.022929, -2.915866, 0.0 ], [ -45.023179, -2.914609, 0.0 ], [ -45.02325, -2.913424, 0.0 ], [ -45.023214, -2.912527, 0.0 ], [ -45.0225, -2.911844, 0.0 ], [ -45.021786, -2.911198, 0.0 ], [ -45.021429, -2.910516, 0.0 ], [ -45.0205, -2.908972, 0.0 ], [ -45.020072, -2.908254, 0.0 ], [ -45.019393, -2.907572, 0.0 ], [ -45.018792, -2.907522, 0.0 ], [ -45.01784, -2.908001, 0.0 ], [ -45.017096, -2.90806, 0.0 ], [ -45.016441, -2.90833, 0.0 ], [ -45.015905, -2.908868, 0.0 ], [ -45.015251, -2.909167, 0.0 ], [ -45.014447, -2.908779, 0.0 ], [ -45.013852, -2.907911, 0.0 ], [ -45.013048, -2.907073, 0.0 ], [ -45.012126, -2.906265, 0.0 ], [ -45.011539, -2.905577, 0.0 ], [ -45.011253, -2.904141, 0.0 ], [ -45.01091, -2.903222, 0.0 ], [ -45.009825, -2.903509, 0.0 ], [ -45.009483, -2.904417, 0.0 ], [ -45.00874, -2.904321, 0.0 ], [ -45.008137, -2.904188, 0.0 ], [ -45.007959, -2.904149, 0.0 ], [ -45.007388, -2.904015, 0.0 ], [ -45.006721, -2.903919, 0.0 ], [ -45.006131, -2.903613, 0.0 ], [ -45.005826, -2.903095, 0.0 ], [ -45.005654, -2.902808, 0.0 ], [ -45.00535, -2.902712, 0.0 ], [ -45.00514, -2.902406, 0.0 ], [ -45.004912, -2.901621, 0.0 ], [ -45.004969, -2.900932, 0.0 ], [ -45.004969, -2.900204, 0.0 ], [ -45.004435, -2.899342, 0.0 ], [ -45.003635, -2.898844, 0.0 ], [ -45.003102, -2.898863, 0.0 ], [ -45.002645, -2.898806, 0.0 ], [ -45.002169, -2.89871, 0.0 ], [ -45.001883, -2.898251, 0.0 ], [ -45.001712, -2.897657, 0.0 ], [ -45.001274, -2.897274, 0.0 ], [ -45.000866, -2.897149, 0.0 ], [ -45.000366, -2.897149, 0.0 ], [ -44.999771, -2.897125, 0.0 ], [ -44.999152, -2.896886, 0.0 ], [ -44.999056, -2.896312, 0.0 ], [ -44.99889, -2.895809, 0.0 ], [ -44.998033, -2.895522, 0.0 ], [ -44.997533, -2.895689, 0.0 ], [ -44.997271, -2.895833, 0.0 ], [ -44.996557, -2.896024, 0.0 ], [ -44.995747, -2.896288, 0.0 ], [ -44.994866, -2.896359, 0.0 ], [ -44.994342, -2.896503, 0.0 ], [ -44.993803, -2.89628, 0.0 ], [ -44.992755, -2.895562, 0.0 ], [ -44.99166, -2.895131, 0.0 ], [ -44.990613, -2.89537, 0.0 ], [ -44.98966, -2.896184, 0.0 ], [ -44.988898, -2.896519, 0.0 ], [ -44.987756, -2.896567, 0.0 ], [ -44.986518, -2.895992, 0.0 ], [ -44.986184, -2.894796, 0.0 ], [ -44.985994, -2.89403, 0.0 ], [ -44.985375, -2.893407, 0.0 ], [ -44.984327, -2.892833, 0.0 ], [ -44.98328, -2.893072, 0.0 ], [ -44.982375, -2.893599, 0.0 ], [ -44.98147, -2.894269, 0.0 ], [ -44.980709, -2.894604, 0.0 ], [ -44.979994, -2.895178, 0.0 ], [ -44.978577, -2.89651, 0.0 ], [ -44.977923, -2.896959, 0.0 ], [ -44.977, -2.896989, 0.0 ], [ -44.976107, -2.89642, 0.0 ], [ -44.975333, -2.895792, 0.0 ], [ -44.974887, -2.895074, 0.0 ], [ -44.974887, -2.894595, 0.0 ], [ -44.975066, -2.893907, 0.0 ], [ -44.975036, -2.89292, 0.0 ], [ -44.974768, -2.892351, 0.0 ], [ -44.974084, -2.892082, 0.0 ], [ -44.97325, -2.892291, 0.0 ], [ -44.972536, -2.89271, 0.0 ], [ -44.971673, -2.892979, 0.0 ], [ -44.97078, -2.893159, 0.0 ], [ -44.970036, -2.893548, 0.0 ], [ -44.969233, -2.894057, 0.0 ], [ -44.968578, -2.894475, 0.0 ], [ -44.968221, -2.895253, 0.0 ], [ -44.968459, -2.896091, 0.0 ], [ -44.96837, -2.896929, 0.0 ], [ -44.968013, -2.897557, 0.0 ], [ -44.967685, -2.898275, 0.0 ], [ -44.967209, -2.898874, 0.0 ], [ -44.966971, -2.899682, 0.0 ], [ -44.96709, -2.900579, 0.0 ], [ -44.96703, -2.901567, 0.0 ], [ -44.966643, -2.902225, 0.0 ], [ -44.96616, -2.902768, 0.0 ], [ -44.966138, -2.902793, 0.0 ], [ -44.965483, -2.903182, 0.0 ], [ -44.964858, -2.903541, 0.0 ], [ -44.964054, -2.90396, 0.0 ], [ -44.9636, -2.90422, 0.0 ], [ -44.962975, -2.904309, 0.0 ], [ -44.96238, -2.904549, 0.0 ], [ -44.961964, -2.904938, 0.0 ], [ -44.961696, -2.905416, 0.0 ], [ -44.961309, -2.905865, 0.0 ], [ -44.960952, -2.906075, 0.0 ], [ -44.960416, -2.906075, 0.0 ], [ -44.959613, -2.905955, 0.0 ], [ -44.959017, -2.905955, 0.0 ], [ -44.958482, -2.906314, 0.0 ], [ -44.957976, -2.906583, 0.0 ], [ -44.957262, -2.906464, 0.0 ], [ -44.956607, -2.905955, 0.0 ], [ -44.955922, -2.905566, 0.0 ], [ -44.955268, -2.905087, 0.0 ], [ -44.954464, -2.904848, 0.0 ], [ -44.953601, -2.904788, 0.0 ], [ -44.952976, -2.904698, 0.0 ], [ -44.952262, -2.904788, 0.0 ], [ -44.951637, -2.905057, 0.0 ], [ -44.951131, -2.905326, 0.0 ], [ -44.950655, -2.905775, 0.0 ], [ -44.950149, -2.906224, 0.0 ], [ -44.949583, -2.906822, 0.0 ], [ -44.949226, -2.907301, 0.0 ], [ -44.94875, -2.90754, 0.0 ], [ -44.948036, -2.90772, 0.0 ], [ -44.947441, -2.908199, 0.0 ], [ -44.946994, -2.908647, 0.0 ], [ -44.946756, -2.909365, 0.0 ], [ -44.946697, -2.909814, 0.0 ], [ -44.946429, -2.910173, 0.0 ], [ -44.945982, -2.910323, 0.0 ], [ -44.945268, -2.909754, 0.0 ], [ -44.944733, -2.908917, 0.0 ], [ -44.94384, -2.908288, 0.0 ], [ -44.942917, -2.908109, 0.0 ], [ -44.942233, -2.908152, 0.0 ], [ -44.941578, -2.9089, 0.0 ], [ -44.940834, -2.909259, 0.0 ], [ -44.94009, -2.909469, 0.0 ], [ -44.939138, -2.909559, 0.0 ], [ -44.938602, -2.909529, 0.0 ], [ -44.938036, -2.909439, 0.0 ], [ -44.937679, -2.909888, 0.0 ], [ -44.937471, -2.910486, 0.0 ], [ -44.937144, -2.911354, 0.0 ], [ -44.936608, -2.911773, 0.0 ], [ -44.935983, -2.9127, 0.0 ], [ -44.935179, -2.913628, 0.0 ], [ -44.934286, -2.914406, 0.0 ], [ -44.933334, -2.915124, 0.0 ], [ -44.93259, -2.916111, 0.0 ], [ -44.931876, -2.917038, 0.0 ], [ -44.931876, -2.917996, 0.0 ], [ -44.931786, -2.919043, 0.0 ], [ -44.931786, -2.919731, 0.0 ], [ -44.931637, -2.920569, 0.0 ], [ -44.931221, -2.921138, 0.0 ], [ -44.930387, -2.921916, 0.0 ], [ -44.929673, -2.922574, 0.0 ], [ -44.929288, -2.922555, 0.0 ], [ -44.928288, -2.923094, 0.0 ], [ -44.927395, -2.92374, 0.0 ], [ -44.926859, -2.924745, 0.0 ], [ -44.926788, -2.925787, 0.0 ], [ -44.926788, -2.926577, 0.0 ], [ -44.926395, -2.927187, 0.0 ], [ -44.925681, -2.927187, 0.0 ], [ -44.924859, -2.927259, 0.0 ], [ -44.923824, -2.927582, 0.0 ], [ -44.922931, -2.928228, 0.0 ], [ -44.922609, -2.929161, 0.0 ], [ -44.922145, -2.930059, 0.0 ], [ -44.921466, -2.930633, 0.0 ], [ -44.920752, -2.931352, 0.0 ], [ -44.919752, -2.931567, 0.0 ], [ -44.918967, -2.93128, 0.0 ], [ -44.917717, -2.93031, 0.0 ], [ -44.91661, -2.929915, 0.0 ], [ -44.915502, -2.930166, 0.0 ], [ -44.91461, -2.930956, 0.0 ], [ -44.913752, -2.932069, 0.0 ], [ -44.913145, -2.932931, 0.0 ], [ -44.912288, -2.933469, 0.0 ], [ -44.911145, -2.934008, 0.0 ], [ -44.910074, -2.933972, 0.0 ], [ -44.909217, -2.933649, 0.0 ], [ -44.908622, -2.933087, 0.0 ], [ -44.907729, -2.932309, 0.0 ], [ -44.906419, -2.93195, 0.0 ], [ -44.905199, -2.93195, 0.0 ], [ -44.904098, -2.932189, 0.0 ], [ -44.903265, -2.932548, 0.0 ], [ -44.902372, -2.932787, 0.0 ], [ -44.901658, -2.932817, 0.0 ], [ -44.900824, -2.932967, 0.0 ], [ -44.899545, -2.933027, 0.0 ], [ -44.898265, -2.933296, 0.0 ], [ -44.897164, -2.933445, 0.0 ], [ -44.896211, -2.933206, 0.0 ], [ -44.8952, -2.932877, 0.0 ], [ -44.894307, -2.932727, 0.0 ], [ -44.893176, -2.932697, 0.0 ], [ -44.892551, -2.933235, 0.0 ], [ -44.892164, -2.933774, 0.0 ], [ -44.89142, -2.934133, 0.0 ], [ -44.890616, -2.934462, 0.0 ], [ -44.889664, -2.934582, 0.0 ], [ -44.888823, -2.934455, 0.0 ], [ -44.888109, -2.934246, 0.0 ], [ -44.887186, -2.934036, 0.0 ], [ -44.886443, -2.933797, 0.0 ], [ -44.885698, -2.933856, 0.0 ], [ -44.885222, -2.934275, 0.0 ], [ -44.884597, -2.934694, 0.0 ], [ -44.883704, -2.935053, 0.0 ], [ -44.88302, -2.935442, 0.0 ], [ -44.882246, -2.935741, 0.0 ], [ -44.881026, -2.93595, 0.0 ], [ -44.879716, -2.93595, 0.0 ], [ -44.878586, -2.935771, 0.0 ], [ -44.877663, -2.935352, 0.0 ], [ -44.876889, -2.934873, 0.0 ], [ -44.876026, -2.934843, 0.0 ], [ -44.875044, -2.934962, 0.0 ], [ -44.874419, -2.935172, 0.0 ], [ -44.873824, -2.935561, 0.0 ], [ -44.872931, -2.936069, 0.0 ], [ -44.871949, -2.936219, 0.0 ], [ -44.871086, -2.936727, 0.0 ], [ -44.870352, -2.93726, 0.0 ], [ -44.869923, -2.937499, 0.0 ], [ -44.869281, -2.93781, 0.0 ], [ -44.868852, -2.937977, 0.0 ], [ -44.868066, -2.938193, 0.0 ], [ -44.867304, -2.9386, 0.0 ], [ -44.867281, -2.938648, 0.0 ], [ -44.866733, -2.938671, 0.0 ], [ -44.866185, -2.938671, 0.0 ], [ -44.865685, -2.938528, 0.0 ], [ -44.865138, -2.938264, 0.0 ], [ -44.864662, -2.938097, 0.0 ], [ -44.864019, -2.938025, 0.0 ], [ -44.8634, -2.938049, 0.0 ], [ -44.863066, -2.938456, 0.0 ], [ -44.862733, -2.938671, 0.0 ], [ -44.862066, -2.938791, 0.0 ], [ -44.861281, -2.938886, 0.0 ], [ -44.860376, -2.938886, 0.0 ], [ -44.859495, -2.938742, 0.0 ], [ -44.858781, -2.938431, 0.0 ], [ -44.858229, -2.937867, 0.0 ], [ -44.857587, -2.937113, 0.0 ], [ -44.857587, -2.936359, 0.0 ], [ -44.85773, -2.935641, 0.0 ], [ -44.857516, -2.935389, 0.0 ], [ -44.857123, -2.935569, 0.0 ], [ -44.856801, -2.935856, 0.0 ], [ -44.856515, -2.936323, 0.0 ], [ -44.855908, -2.936323, 0.0 ], [ -44.855516, -2.935892, 0.0 ], [ -44.855087, -2.935389, 0.0 ], [ -44.85423, -2.934886, 0.0 ], [ -44.853087, -2.934348, 0.0 ], [ -44.852302, -2.933486, 0.0 ], [ -44.852266, -2.932301, 0.0 ], [ -44.852552, -2.931044, 0.0 ], [ -44.852695, -2.92968, 0.0 ], [ -44.852695, -2.928746, 0.0 ], [ -44.852731, -2.928208, 0.0 ], [ -44.852231, -2.928136, 0.0 ], [ -44.852008, -2.928383, 0.0 ], [ -44.851389, -2.92867, 0.0 ], [ -44.850532, -2.928502, 0.0 ], [ -44.849675, -2.928287, 0.0 ], [ -44.849032, -2.928095, 0.0 ], [ -44.848484, -2.92788, 0.0 ], [ -44.848032, -2.927521, 0.0 ], [ -44.847865, -2.927066, 0.0 ], [ -44.847675, -2.926348, 0.0 ], [ -44.847651, -2.92551, 0.0 ], [ -44.84777, -2.924457, 0.0 ], [ -44.847294, -2.923619, 0.0 ], [ -44.846771, -2.923212, 0.0 ], [ -44.846366, -2.922948, 0.0 ], [ -44.846057, -2.922577, 0.0 ], [ -44.845143, -2.922003, 0.0 ], [ -44.844057, -2.921486, 0.0 ], [ -44.843143, -2.920854, 0.0 ], [ -44.842686, -2.919647, 0.0 ], [ -44.841943, -2.918326, 0.0 ], [ -44.841601, -2.916774, 0.0 ], [ -44.841144, -2.915453, 0.0 ], [ -44.84023, -2.914074, 0.0 ], [ -44.839544, -2.91304, 0.0 ], [ -44.839944, -2.912063, 0.0 ], [ -44.840002, -2.910972, 0.0 ], [ -44.839773, -2.91011, 0.0 ], [ -44.839145, -2.909478, 0.0 ], [ -44.838116, -2.909018, 0.0 ], [ -44.838002, -2.908099, 0.0 ], [ -44.838002, -2.90695, 0.0 ], [ -44.838574, -2.905744, 0.0 ], [ -44.838631, -2.90448, 0.0 ], [ -44.838403, -2.903446, 0.0 ], [ -44.83766, -2.903044, 0.0 ], [ -44.836403, -2.902986, 0.0 ], [ -44.835717, -2.902986, 0.0 ], [ -44.834803, -2.903158, 0.0 ], [ -44.833946, -2.90333, 0.0 ], [ -44.833317, -2.902871, 0.0 ], [ -44.832369, -2.902416, 0.0 ], [ -44.831512, -2.901382, 0.0 ], [ -44.831055, -2.90052, 0.0 ], [ -44.831056, -2.899658, 0.0 ], [ -44.831456, -2.898567, 0.0 ], [ -44.831856, -2.897188, 0.0 ], [ -44.830999, -2.896154, 0.0 ], [ -44.830313, -2.895752, 0.0 ], [ -44.829913, -2.895062, 0.0 ], [ -44.828942, -2.894487, 0.0 ], [ -44.827971, -2.893568, 0.0 ], [ -44.827285, -2.892879, 0.0 ], [ -44.8262, -2.892591, 0.0 ], [ -44.825571, -2.892017, 0.0 ], [ -44.824943, -2.891385, 0.0 ], [ -44.824372, -2.890523, 0.0 ], [ -44.823343, -2.890063, 0.0 ], [ -44.821972, -2.889546, 0.0 ], [ -44.820772, -2.888626, 0.0 ], [ -44.81963, -2.887707, 0.0 ], [ -44.819001, -2.886386, 0.0 ], [ -44.818316, -2.885237, 0.0 ], [ -44.817288, -2.883973, 0.0 ], [ -44.816431, -2.882766, 0.0 ], [ -44.815745, -2.88133, 0.0 ], [ -44.815803, -2.879836, 0.0 ], [ -44.815232, -2.878629, 0.0 ], [ -44.814489, -2.87771, 0.0 ], [ -44.813803, -2.877136, 0.0 ], [ -44.813289, -2.877135, 0.0 ], [ -44.812775, -2.876791, 0.0 ], [ -44.811804, -2.875929, 0.0 ], [ -44.811233, -2.875354, 0.0 ], [ -44.810947, -2.874492, 0.0 ], [ -44.811061, -2.873401, 0.0 ], [ -44.811004, -2.872252, 0.0 ], [ -44.810947, -2.871333, 0.0 ], [ -44.81089, -2.870816, 0.0 ], [ -44.810262, -2.87116, 0.0 ], [ -44.809576, -2.871562, 0.0 ], [ -44.80885, -2.871517, 0.0 ], [ -44.807822, -2.871517, 0.0 ], [ -44.806965, -2.871459, 0.0 ], [ -44.805708, -2.871344, 0.0 ], [ -44.805251, -2.870138, 0.0 ], [ -44.804508, -2.869448, 0.0 ], [ -44.803308, -2.869678, 0.0 ], [ -44.802223, -2.869735, 0.0 ], [ -44.801309, -2.869505, 0.0 ], [ -44.801252, -2.868356, 0.0 ], [ -44.800566, -2.867265, 0.0 ], [ -44.799481, -2.866632, 0.0 ], [ -44.798567, -2.86646, 0.0 ], [ -44.797595, -2.866977, 0.0 ], [ -44.796795, -2.867436, 0.0 ], [ -44.795938, -2.867838, 0.0 ], [ -44.795081, -2.868355, 0.0 ], [ -44.794338, -2.868872, 0.0 ], [ -44.79331, -2.868929, 0.0 ], [ -44.792053, -2.868929, 0.0 ], [ -44.790281, -2.868929, 0.0 ], [ -44.788687, -2.869749, 0.0 ], [ -44.787901, -2.870754, 0.0 ], [ -44.787687, -2.872262, 0.0 ], [ -44.787401, -2.873483, 0.0 ], [ -44.786829, -2.874632, 0.0 ], [ -44.786758, -2.875852, 0.0 ], [ -44.786543, -2.877432, 0.0 ], [ -44.7859, -2.878222, 0.0 ], [ -44.785043, -2.878868, 0.0 ], [ -44.783972, -2.878653, 0.0 ], [ -44.782686, -2.878652, 0.0 ], [ -44.782186, -2.878078, 0.0 ], [ -44.782044, -2.877072, 0.0 ], [ -44.782044, -2.87578, 0.0 ], [ -44.781759, -2.874415, 0.0 ], [ -44.780902, -2.873841, 0.0 ], [ -44.77983, -2.873194, 0.0 ], [ -44.778759, -2.873194, 0.0 ], [ -44.778045, -2.873481, 0.0 ], [ -44.777188, -2.873553, 0.0 ], [ -44.775974, -2.873337, 0.0 ], [ -44.775474, -2.872403, 0.0 ], [ -44.775046, -2.871398, 0.0 ], [ -44.774831, -2.87068, 0.0 ], [ -44.774455, -2.869688, 0.0 ], [ -44.773503, -2.869687, 0.0 ], [ -44.772646, -2.869161, 0.0 ], [ -44.771646, -2.868682, 0.0 ], [ -44.770646, -2.868634, 0.0 ], [ -44.769884, -2.868203, 0.0 ], [ -44.769313, -2.867389, 0.0 ], [ -44.768647, -2.866383, 0.0 ], [ -44.768123, -2.866048, 0.0 ], [ -44.767837, -2.866335, 0.0 ], [ -44.767409, -2.866909, 0.0 ], [ -44.766742, -2.866861, 0.0 ], [ -44.766075, -2.866718, 0.0 ], [ -44.765123, -2.866382, 0.0 ], [ -44.764409, -2.866047, 0.0 ], [ -44.764076, -2.865425, 0.0 ], [ -44.764124, -2.864467, 0.0 ], [ -44.764219, -2.863462, 0.0 ], [ -44.763696, -2.862792, 0.0 ], [ -44.763029, -2.862169, 0.0 ], [ -44.762553, -2.861738, 0.0 ], [ -44.761648, -2.861594, 0.0 ], [ -44.760839, -2.86145, 0.0 ], [ -44.760077, -2.861259, 0.0 ], [ -44.759506, -2.861115, 0.0 ], [ -44.758839, -2.860684, 0.0 ], [ -44.758363, -2.860301, 0.0 ], [ -44.75784, -2.859966, 0.0 ], [ -44.757554, -2.859631, 0.0 ], [ -44.757173, -2.859152, 0.0 ], [ -44.75684, -2.858577, 0.0 ], [ -44.755983, -2.857556, 0.0 ], [ -44.755031, -2.856311, 0.0 ], [ -44.754695, -2.855281, 0.0 ], [ -44.754814, -2.854024, 0.0 ], [ -44.754517, -2.852408, 0.0 ], [ -44.754041, -2.85157, 0.0 ], [ -44.753327, -2.850912, 0.0 ], [ -44.752792, -2.850014, 0.0 ], [ -44.752375, -2.848997, 0.0 ], [ -44.752078, -2.84768, 0.0 ], [ -44.751662, -2.846364, 0.0 ], [ -44.750947, -2.845944, 0.0 ], [ -44.750233, -2.845166, 0.0 ], [ -44.7494, -2.844089, 0.0 ], [ -44.749877, -2.843251, 0.0 ], [ -44.750948, -2.842294, 0.0 ], [ -44.751841, -2.841097, 0.0 ], [ -44.752199, -2.84008, 0.0 ], [ -44.751842, -2.839601, 0.0 ], [ -44.751544, -2.839123, 0.0 ], [ -44.75077, -2.839122, 0.0 ], [ -44.750235, -2.838943, 0.0 ], [ -44.749937, -2.838404, 0.0 ], [ -44.749521, -2.837447, 0.0 ], [ -44.749462, -2.836728, 0.0 ], [ -44.749462, -2.835591, 0.0 ], [ -44.749819, -2.834395, 0.0 ], [ -44.750355, -2.833497, 0.0 ], [ -44.75101, -2.833019, 0.0 ], [ -44.751486, -2.832121, 0.0 ], [ -44.751486, -2.830924, 0.0 ], [ -44.750965, -2.829581, 0.0 ], [ -44.750155, -2.829533, 0.0 ], [ -44.749537, -2.829245, 0.0 ], [ -44.748632, -2.828958, 0.0 ], [ -44.748061, -2.828575, 0.0 ], [ -44.747537, -2.827856, 0.0 ], [ -44.747109, -2.827138, 0.0 ], [ -44.746204, -2.826324, 0.0 ], [ -44.745347, -2.826132, 0.0 ], [ -44.74449, -2.826228, 0.0 ], [ -44.743681, -2.826515, 0.0 ], [ -44.742776, -2.826658, 0.0 ], [ -44.742015, -2.82594, 0.0 ], [ -44.741682, -2.824791, 0.0 ], [ -44.741491, -2.823499, 0.0 ], [ -44.741301, -2.82211, 0.0 ], [ -44.741254, -2.82077, 0.0 ], [ -44.740921, -2.819908, 0.0 ], [ -44.740349, -2.819956, 0.0 ], [ -44.73954, -2.820099, 0.0 ], [ -44.738493, -2.820099, 0.0 ], [ -44.737636, -2.819716, 0.0 ], [ -44.736826, -2.819332, 0.0 ], [ -44.736112, -2.818614, 0.0 ], [ -44.736065, -2.817705, 0.0 ], [ -44.737113, -2.817035, 0.0 ], [ -44.737636, -2.815981, 0.0 ], [ -44.73797, -2.814785, 0.0 ], [ -44.737827, -2.813731, 0.0 ], [ -44.73759, -2.812582, 0.0 ], [ -44.736733, -2.811481, 0.0 ], [ -44.735773, -2.810063, 0.0 ], [ -44.735431, -2.808742, 0.0 ], [ -44.734517, -2.80811, 0.0 ], [ -44.733717, -2.807478, 0.0 ], [ -44.733717, -2.806443, 0.0 ], [ -44.733718, -2.805065, 0.0 ], [ -44.734061, -2.804203, 0.0 ], [ -44.734232, -2.803169, 0.0 ], [ -44.734061, -2.802422, 0.0 ], [ -44.733204, -2.801618, 0.0 ], [ -44.732062, -2.801215, 0.0 ], [ -44.731148, -2.80133, 0.0 ], [ -44.730234, -2.800755, 0.0 ], [ -44.729777, -2.799262, 0.0 ], [ -44.729663, -2.797825, 0.0 ], [ -44.729149, -2.796734, 0.0 ], [ -44.728007, -2.795412, 0.0 ], [ -44.72755, -2.794263, 0.0 ], [ -44.727264, -2.792769, 0.0 ], [ -44.726629, -2.792149, 0.0 ], [ -44.726493, -2.792032, 0.0 ], [ -44.726023, -2.791627, 0.0 ], [ -44.72526, -2.79188, 0.0 ], [ -44.724844, -2.792358, 0.0 ], [ -44.723862, -2.792598, 0.0 ], [ -44.722969, -2.792418, 0.0 ], [ -44.722049, -2.791282, 0.0 ], [ -44.722145, -2.791104, 0.0 ], [ -44.722285, -2.790862, 0.0 ], [ -44.722434, -2.790263, 0.0 ], [ -44.72291, -2.789515, 0.0 ], [ -44.723208, -2.788947, 0.0 ], [ -44.723446, -2.788528, 0.0 ], [ -44.723446, -2.78787, 0.0 ], [ -44.723, -2.787032, 0.0 ], [ -44.722167, -2.786583, 0.0 ], [ -44.720887, -2.786553, 0.0 ], [ -44.719935, -2.786463, 0.0 ], [ -44.719221, -2.786642, 0.0 ], [ -44.717971, -2.786762, 0.0 ], [ -44.717168, -2.786761, 0.0 ], [ -44.716424, -2.786971, 0.0 ], [ -44.71559, -2.787389, 0.0 ], [ -44.714579, -2.788017, 0.0 ], [ -44.713894, -2.788137, 0.0 ], [ -44.71315, -2.787897, 0.0 ], [ -44.712615, -2.787299, 0.0 ], [ -44.712663, -2.786865, 0.0 ], [ -44.712949, -2.785967, 0.0 ], [ -44.713056, -2.785213, 0.0 ], [ -44.713699, -2.784675, 0.0 ], [ -44.714449, -2.784136, 0.0 ], [ -44.714949, -2.783346, 0.0 ], [ -44.715128, -2.782521, 0.0 ], [ -44.714771, -2.781551, 0.0 ], [ -44.714093, -2.780761, 0.0 ], [ -44.713557, -2.780402, 0.0 ], [ -44.712807, -2.780402, 0.0 ], [ -44.711879, -2.780078, 0.0 ], [ -44.711415, -2.779324, 0.0 ], [ -44.710594, -2.778929, 0.0 ], [ -44.709808, -2.77857, 0.0 ], [ -44.709166, -2.778175, 0.0 ], [ -44.708166, -2.778031, 0.0 ], [ -44.707416, -2.777564, 0.0 ], [ -44.706881, -2.777492, 0.0 ], [ -44.705763, -2.775488, 0.0 ], [ -44.703383, -2.773842, 0.0 ], [ -44.701449, -2.772345, 0.0 ], [ -44.699367, -2.77025, 0.0 ], [ -44.698623, -2.766959, 0.0 ], [ -44.698624, -2.763817, 0.0 ], [ -44.69922, -2.760825, 0.0 ], [ -44.699667, -2.757384, 0.0 ], [ -44.701305, -2.753944, 0.0 ], [ -44.704132, -2.750653, 0.0 ], [ -44.707704, -2.747662, 0.0 ], [ -44.712465, -2.744821, 0.0 ], [ -44.715739, -2.74138, 0.0 ], [ -44.71931, -2.738539, 0.0 ], [ -44.724578, -2.735841, 0.0 ], [ -44.728388, -2.730097, 0.0 ], [ -44.731722, -2.72148, 0.0 ], [ -44.732677, -2.711427, 0.0 ], [ -44.732679, -2.699937, 0.0 ], [ -44.731254, -2.68366, 0.0 ], [ -44.722192, -2.673684, 0.0 ], [ -44.71648, -2.670092, 0.0 ], [ -44.708625, -2.667936, 0.0 ], [ -44.699343, -2.665061, 0.0 ], [ -44.694701, -2.667573, 0.0 ], [ -44.688273, -2.671521, 0.0 ], [ -44.683273, -2.676188, 0.0 ], [ -44.679345, -2.679059, 0.0 ], [ -44.673275, -2.678339, 0.0 ], [ -44.668635, -2.675466, 0.0 ], [ -44.663636, -2.675464, 0.0 ], [ -44.657566, -2.677976, 0.0 ], [ -44.64971, -2.679769, 0.0 ], [ -44.64471, -2.684076, 0.0 ], [ -44.640781, -2.689102, 0.0 ], [ -44.636495, -2.694845, 0.0 ], [ -44.632567, -2.696639, 0.0 ], [ -44.623695, -2.700331, 0.0 ], [ -44.626265, -2.701553, 0.0 ], [ -44.627121, -2.703205, 0.0 ], [ -44.627121, -2.705431, 0.0 ], [ -44.626977, -2.707657, 0.0 ], [ -44.627334, -2.709093, 0.0 ], [ -44.627119, -2.710242, 0.0 ], [ -44.626976, -2.712971, 0.0 ], [ -44.625617, -2.719649, 0.0 ], [ -44.62483, -2.722234, 0.0 ], [ -44.624615, -2.727332, 0.0 ], [ -44.624827, -2.733795, 0.0 ], [ -44.624683, -2.73717, 0.0 ], [ -44.62611, -2.742197, 0.0 ], [ -44.627394, -2.745286, 0.0 ], [ -44.628607, -2.748158, 0.0 ], [ -44.631248, -2.753832, 0.0 ], [ -44.63346, -2.758213, 0.0 ], [ -44.634531, -2.761158, 0.0 ], [ -44.635458, -2.763169, 0.0 ], [ -44.635672, -2.76518, 0.0 ], [ -44.637599, -2.767047, 0.0 ], [ -44.638086, -2.767993, 0.0 ], [ -44.63867, -2.76913, 0.0 ], [ -44.639027, -2.770782, 0.0 ], [ -44.641168, -2.773224, 0.0 ], [ -44.643095, -2.777461, 0.0 ], [ -44.645737, -2.780047, 0.0 ], [ -44.64695, -2.782202, 0.0 ], [ -44.647164, -2.783854, 0.0 ], [ -44.646948, -2.788665, 0.0 ], [ -44.647447, -2.790963, 0.0 ], [ -44.648804, -2.793692, 0.0 ], [ -44.648874, -2.796493, 0.0 ], [ -44.648873, -2.80073, 0.0 ], [ -44.649443, -2.804248, 0.0 ], [ -44.650097, -2.805012, 0.0 ], [ -44.651228, -2.806331, 0.0 ], [ -44.651012, -2.810855, 0.0 ], [ -44.64894, -2.813799, 0.0 ], [ -44.646297, -2.817317, 0.0 ], [ -44.643081, -2.824282, 0.0 ], [ -44.640865, -2.830097, 0.0 ], [ -44.637864, -2.835985, 0.0 ], [ -44.635721, -2.838857, 0.0 ], [ -44.634648, -2.842662, 0.0 ], [ -44.634575, -2.84891, 0.0 ], [ -44.635001, -2.856234, 0.0 ], [ -44.6355, -2.860256, 0.0 ], [ -44.637284, -2.863703, 0.0 ], [ -44.638997, -2.8683, 0.0 ], [ -44.642495, -2.873256, 0.0 ], [ -44.643637, -2.875769, 0.0 ], [ -44.645921, -2.879289, 0.0 ], [ -44.647776, -2.883885, 0.0 ], [ -44.649347, -2.887404, 0.0 ], [ -44.652345, -2.891786, 0.0 ], [ -44.652989, -2.892578, 0.0 ], [ -44.654273, -2.894156, 0.0 ], [ -44.656201, -2.895234, 0.0 ], [ -44.658343, -2.896168, 0.0 ], [ -44.661413, -2.898611, 0.0 ], [ -44.665484, -2.900479, 0.0 ], [ -44.670411, -2.90285, 0.0 ], [ -44.674196, -2.905939, 0.0 ], [ -44.676909, -2.909387, 0.0 ], [ -44.679622, -2.913193, 0.0 ], [ -44.68112, -2.91822, 0.0 ], [ -44.68169, -2.923535, 0.0 ], [ -44.681975, -2.927915, 0.0 ], [ -44.682187, -2.93682, 0.0 ], [ -44.682043, -2.940697, 0.0 ], [ -44.681685, -2.943498, 0.0 ], [ -44.680684, -2.946801, 0.0 ], [ -44.679683, -2.950032, 0.0 ], [ -44.678396, -2.953119, 0.0 ], [ -44.677681, -2.956782, 0.0 ], [ -44.677823, -2.960947, 0.0 ], [ -44.678964, -2.964825, 0.0 ], [ -44.679892, -2.967338, 0.0 ], [ -44.679892, -2.969564, 0.0 ], [ -44.680391, -2.971144, 0.0 ], [ -44.680819, -2.973155, 0.0 ], [ -44.681175, -2.977177, 0.0 ], [ -44.681174, -2.981557, 0.0 ], [ -44.680322, -2.985596, 0.0 ], [ -44.679576, -2.989635, 0.0 ], [ -44.677938, -2.99517, 0.0 ], [ -44.676895, -3.000256, 0.0 ], [ -44.674959, -3.004145, 0.0 ], [ -44.667395, -3.013263, 0.0 ], [ -44.665585, -3.01489, 0.0 ], [ -44.663679, -3.016469, 0.0 ], [ -44.660679, -3.018288, 0.0 ], [ -44.65744, -3.020249, 0.0 ], [ -44.653868, -3.021876, 0.0 ], [ -44.651653, -3.022837, 0.0 ], [ -44.645581, -3.02457, 0.0 ], [ -44.639033, -3.026303, 0.0 ], [ -44.635283, -3.026422, 0.0 ], [ -44.629628, -3.027318, 0.0 ], [ -44.62552, -3.028453, 0.0 ], [ -44.621889, -3.029469, 0.0 ], [ -44.617721, -3.031682, 0.0 ], [ -44.61534, -3.032698, 0.0 ], [ -44.613256, -3.034074, 0.0 ], [ -44.611112, -3.036527, 0.0 ], [ -44.610635, -3.038202, 0.0 ], [ -44.611111, -3.039698, 0.0 ], [ -44.612062, -3.042691, 0.0 ], [ -44.612716, -3.045144, 0.0 ], [ -44.614561, -3.048017, 0.0 ], [ -44.61581, -3.050292, 0.0 ], [ -44.619261, -3.05514, 0.0 ], [ -44.620391, -3.057115, 0.0 ], [ -44.62289, -3.05951, 0.0 ], [ -44.624794, -3.061425, 0.0 ], [ -44.628722, -3.064359, 0.0 ], [ -44.632828, -3.067652, 0.0 ], [ -44.636756, -3.070406, 0.0 ], [ -44.644731, -3.075675, 0.0 ], [ -44.649552, -3.079087, 0.0 ], [ -44.653479, -3.082739, 0.0 ], [ -44.661751, -3.0907, 0.0 ], [ -44.665381, -3.09501, 0.0 ], [ -44.667702, -3.098721, 0.0 ], [ -44.670439, -3.10303, 0.0 ], [ -44.672819, -3.106741, 0.0 ], [ -44.675555, -3.112188, 0.0 ], [ -44.683317, -3.127507, 0.0 ], [ -44.687841, -3.13494, 0.0 ], [ -44.689258, -3.137208, 0.0 ], [ -44.691159, -3.140249, 0.0 ], [ -44.69674, -3.144801, 0.0 ], [ -44.701265, -3.148745, 0.0 ], [ -44.708657, -3.154359, 0.0 ], [ -44.713635, -3.157393, 0.0 ], [ -44.723139, -3.162856, 0.0 ], [ -44.726853, -3.167259, 0.0 ], [ -44.729829, -3.171598, 0.0 ], [ -44.732656, -3.175489, 0.0 ], [ -44.734292, -3.177584, 0.0 ], [ -44.737567, -3.177884, 0.0 ], [ -44.742031, -3.178334, 0.0 ], [ -44.748878, -3.178036, 0.0 ], [ -44.762571, -3.17789, 0.0 ], [ -44.767333, -3.178489, 0.0 ], [ -44.770756, -3.179687, 0.0 ], [ -44.776411, -3.182979, 0.0 ], [ -44.782215, -3.187469, 0.0 ], [ -44.789061, -3.192706, 0.0 ], [ -44.793674, -3.197196, 0.0 ], [ -44.797543, -3.201236, 0.0 ], [ -44.802156, -3.206622, 0.0 ], [ -44.803197, -3.210811, 0.0 ], [ -44.803196, -3.216496, 0.0 ], [ -44.803492, -3.221134, 0.0 ], [ -44.802003, -3.225473, 0.0 ], [ -44.801258, -3.229661, 0.0 ], [ -44.801555, -3.236094, 0.0 ], [ -44.801405, -3.241929, 0.0 ], [ -44.80066, -3.246267, 0.0 ], [ -44.799766, -3.248661, 0.0 ], [ -44.798426, -3.251653, 0.0 ], [ -44.796341, -3.255991, 0.0 ], [ -44.79381, -3.259581, 0.0 ], [ -44.788897, -3.265414, 0.0 ], [ -44.783835, -3.268854, 0.0 ], [ -44.780113, -3.271397, 0.0 ], [ -44.77788, -3.273341, 0.0 ], [ -44.776391, -3.275884, 0.0 ], [ -44.774455, -3.279773, 0.0 ], [ -44.769989, -3.284111, 0.0 ], [ -44.763884, -3.290094, 0.0 ], [ -44.75803, -3.295592, 0.0 ], [ -44.757387, -3.297483, 0.0 ], [ -44.757171, -3.301241, 0.0 ], [ -44.757171, -3.302557, 0.0 ], [ -44.757367, -3.30368, 0.0 ], [ -44.757928, -3.303896, 0.0 ], [ -44.760179, -3.304612, 0.0 ], [ -44.761401, -3.304911, 0.0 ], [ -44.762598, -3.305019, 0.0 ], [ -44.766071, -3.305032, 0.0 ], [ -44.76807, -3.304918, 0.0 ], [ -44.770152, -3.304392, 0.0 ], [ -44.776758, -3.301907, 0.0 ], [ -44.780523, -3.300175, 0.0 ], [ -44.783823, -3.298483, 0.0 ], [ -44.785171, -3.297898, 0.0 ], [ -44.785553, -3.298016, 0.0 ], [ -44.785577, -3.297722, 0.0 ], [ -44.785738, -3.297652, 0.0 ], [ -44.786576, -3.29741, 0.0 ], [ -44.789397, -3.293875, 0.0 ], [ -44.791351, -3.290381, 0.0 ], [ -44.792161, -3.28703, 0.0 ], [ -44.792686, -3.283152, 0.0 ], [ -44.793067, -3.279753, 0.0 ], [ -44.793211, -3.276115, 0.0 ], [ -44.793736, -3.271471, 0.0 ], [ -44.795833, -3.266972, 0.0 ], [ -44.798263, -3.264004, 0.0 ], [ -44.801502, -3.26142, 0.0 ], [ -44.805218, -3.259601, 0.0 ], [ -44.809695, -3.258405, 0.0 ], [ -44.813553, -3.258597, 0.0 ], [ -44.816792, -3.259364, 0.0 ], [ -44.819745, -3.260753, 0.0 ], [ -44.821745, -3.262812, 0.0 ], [ -44.822936, -3.26444, 0.0 ], [ -44.823411, -3.267312, 0.0 ], [ -44.823649, -3.27028, 0.0 ], [ -44.823411, -3.271525, 0.0 ], [ -44.823172, -3.274014, 0.0 ], [ -44.822743, -3.27636, 0.0 ], [ -44.822695, -3.278323, 0.0 ], [ -44.8236, -3.28043, 0.0 ], [ -44.825933, -3.281579, 0.0 ], [ -44.828982, -3.282633, 0.0 ], [ -44.833506, -3.284979, 0.0 ], [ -44.836078, -3.28699, 0.0 ], [ -44.839317, -3.290534, 0.0 ], [ -44.840391, -3.291595, 0.0 ], [ -44.843021, -3.290855, 0.0 ], [ -44.844352, -3.290867, 0.0 ], [ -44.84682, -3.292504, 0.0 ], [ -44.847988, -3.293641, 0.0 ], [ -44.850321, -3.295592, 0.0 ], [ -44.851684, -3.296022, 0.0 ], [ -44.852319, -3.295853, 0.0 ], [ -44.85232, -3.29585, 0.0 ], [ -44.852177, -3.294174, 0.0 ], [ -44.851987, -3.292786, 0.0 ], [ -44.851463, -3.291062, 0.0 ], [ -44.849082, -3.287854, 0.0 ], [ -44.847082, -3.285556, 0.0 ], [ -44.846758, -3.284797, 0.0 ], [ -44.845459, -3.283991, 0.0 ], [ -44.842295, -3.282427, 0.0 ], [ -44.83991, -3.280834, 0.0 ], [ -44.839182, -3.279629, 0.0 ], [ -44.839239, -3.27746, 0.0 ], [ -44.841238, -3.276372, 0.0 ], [ -44.842767, -3.276342, 0.0 ], [ -44.845186, -3.276701, 0.0 ], [ -44.847689, -3.277332, 0.0 ], [ -44.84773, -3.277337, 0.0 ], [ -44.848655, -3.275934, 0.0 ], [ -44.85037, -3.274641, 0.0 ], [ -44.853085, -3.273493, 0.0 ], [ -44.855705, -3.272919, 0.0 ], [ -44.856277, -3.272201, 0.0 ], [ -44.856848, -3.270381, 0.0 ], [ -44.859754, -3.266265, 0.0 ], [ -44.862041, -3.263536, 0.0 ], [ -44.865376, -3.261095, 0.0 ], [ -44.870806, -3.258367, 0.0 ], [ -44.87414, -3.257937, 0.0 ], [ -44.876569, -3.258559, 0.0 ], [ -44.879141, -3.260905, 0.0 ], [ -44.879665, -3.261719, 0.0 ], [ -44.879379, -3.263347, 0.0 ], [ -44.879093, -3.26507, 0.0 ], [ -44.877712, -3.266746, 0.0 ], [ -44.876044, -3.267847, 0.0 ], [ -44.874062, -3.268669, 0.0 ], [ -44.87202, -3.270415, 0.0 ], [ -44.87113, -3.272284, 0.0 ], [ -44.871493, -3.27402, 0.0 ], [ -44.873213, -3.274929, 0.0 ], [ -44.873878, -3.276819, 0.0 ], [ -44.872321, -3.277841, 0.0 ], [ -44.870715, -3.277416, 0.0 ], [ -44.868434, -3.277805, 0.0 ], [ -44.868362, -3.278098, 0.0 ], [ -44.869136, -3.279144, 0.0 ], [ -44.870708, -3.281107, 0.0 ], [ -44.871994, -3.282639, 0.0 ], [ -44.873042, -3.283597, 0.0 ], [ -44.874098, -3.283763, 0.0 ], [ -44.875379, -3.283099, 0.0 ], [ -44.877737, -3.280881, 0.0 ], [ -44.878767, -3.280273, 0.0 ], [ -44.879663, -3.279337, 0.0 ], [ -44.882902, -3.277039, 0.0 ], [ -44.884617, -3.276848, 0.0 ], [ -44.887094, -3.275891, 0.0 ], [ -44.888333, -3.274646, 0.0 ], [ -44.89, -3.274455, 0.0 ], [ -44.891619, -3.274599, 0.0 ], [ -44.892619, -3.27503, 0.0 ], [ -44.893191, -3.276179, 0.0 ], [ -44.893238, -3.277854, 0.0 ], [ -44.893, -3.279195, 0.0 ], [ -44.892381, -3.280535, 0.0 ], [ -44.891237, -3.281492, 0.0 ], [ -44.889934, -3.281738, 0.0 ], [ -44.889877, -3.281815, 0.0 ], [ -44.887599, -3.281776, 0.0 ], [ -44.886318, -3.281271, 0.0 ], [ -44.884962, -3.281522, 0.0 ], [ -44.885045, -3.282736, 0.0 ], [ -44.886045, -3.284412, 0.0 ], [ -44.891236, -3.292216, 0.0 ], [ -44.891713, -3.292695, 0.0 ], [ -44.892808, -3.292551, 0.0 ], [ -44.894809, -3.291738, 0.0 ], [ -44.896714, -3.292121, 0.0 ], [ -44.89781, -3.293126, 0.0 ], [ -44.898095, -3.294611, 0.0 ], [ -44.897571, -3.295855, 0.0 ], [ -44.896999, -3.297483, 0.0 ], [ -44.89719, -3.299159, 0.0 ], [ -44.897856, -3.300068, 0.0 ], [ -44.899095, -3.30026, 0.0 ], [ -44.9, -3.299494, 0.0 ], [ -44.902286, -3.29892, 0.0 ], [ -44.90443, -3.298968, 0.0 ], [ -44.906621, -3.299973, 0.0 ], [ -44.909384, -3.30208, 0.0 ], [ -44.911336, -3.303229, 0.0 ], [ -44.914004, -3.305336, 0.0 ], [ -44.916385, -3.306724, 0.0 ], [ -44.920005, -3.306868, 0.0 ], [ -44.923054, -3.306342, 0.0 ], [ -44.924435, -3.305097, 0.0 ], [ -44.927008, -3.3028, 0.0 ], [ -44.930009, -3.301316, 0.0 ], [ -44.93201, -3.300789, 0.0 ], [ -44.932081, -3.300694, 0.0 ], [ -44.931634, -3.29898, 0.0 ], [ -44.92938, -3.296612, 0.0 ], [ -44.927989, -3.294222, 0.0 ], [ -44.928157, -3.292404, 0.0 ], [ -44.92848, -3.292138, 0.0 ], [ -44.928295, -3.291454, 0.0 ], [ -44.928438, -3.290113, 0.0 ], [ -44.930486, -3.289491, 0.0 ], [ -44.933058, -3.289587, 0.0 ], [ -44.936964, -3.291215, 0.0 ], [ -44.939155, -3.292795, 0.0 ], [ -44.940141, -3.293125, 0.0 ], [ -44.939516, -3.294059, 0.0 ], [ -44.937348, -3.293709, 0.0 ], [ -44.934765, -3.292828, 0.0 ], [ -44.932794, -3.292051, 0.0 ], [ -44.930991, -3.292286, 0.0 ], [ -44.930102, -3.293019, 0.0 ], [ -44.929933, -3.294837, 0.0 ], [ -44.930816, -3.296351, 0.0 ], [ -44.933076, -3.299087, 0.0 ], [ -44.933314, -3.301586, 0.0 ], [ -44.93153, -3.303489, 0.0 ], [ -44.927902, -3.304387, 0.0 ], [ -44.925743, -3.305692, 0.0 ], [ -44.923195, -3.307886, 0.0 ], [ -44.92203, -3.308395, 0.0 ], [ -44.919833, -3.308758, 0.0 ], [ -44.917663, -3.308675, 0.0 ], [ -44.915112, -3.308248, 0.0 ], [ -44.908265, -3.302613, 0.0 ], [ -44.906936, -3.301766, 0.0 ], [ -44.904275, -3.300633, 0.0 ], [ -44.902791, -3.300316, 0.0 ], [ -44.901601, -3.300326, 0.0 ], [ -44.899653, -3.300732, 0.0 ], [ -44.89763, -3.301656, 0.0 ], [ -44.89638, -3.301618, 0.0 ], [ -44.895408, -3.299815, 0.0 ], [ -44.895903, -3.297765, 0.0 ], [ -44.896795, -3.295828, 0.0 ], [ -44.896217, -3.294026, 0.0 ], [ -44.894186, -3.293648, 0.0 ], [ -44.893041, -3.293811, 0.0 ], [ -44.891101, -3.293515, 0.0 ], [ -44.890543, -3.293429, 0.0 ], [ -44.889151, -3.292083, 0.0 ], [ -44.888014, -3.290464, 0.0 ], [ -44.885934, -3.287126, 0.0 ], [ -44.885017, -3.28509, 0.0 ], [ -44.883851, -3.283507, 0.0 ], [ -44.883764, -3.280765, 0.0 ], [ -44.885335, -3.280146, 0.0 ], [ -44.887048, -3.280646, 0.0 ], [ -44.889094, -3.280741, 0.0 ], [ -44.891042, -3.280233, 0.0 ], [ -44.89099, -3.279009, 0.0 ], [ -44.89038, -3.276933, 0.0 ], [ -44.888462, -3.27625, 0.0 ], [ -44.886493, -3.276986, 0.0 ], [ -44.884825, -3.278222, 0.0 ], [ -44.883604, -3.278837, 0.0 ], [ -44.882434, -3.279207, 0.0 ], [ -44.880723, -3.280492, 0.0 ], [ -44.878471, -3.281821, 0.0 ], [ -44.874982, -3.284672, 0.0 ], [ -44.872692, -3.284314, 0.0 ], [ -44.871422, -3.283711, 0.0 ], [ -44.870374, -3.28261, 0.0 ], [ -44.868707, -3.281557, 0.0 ], [ -44.866945, -3.279259, 0.0 ], [ -44.86604, -3.277631, 0.0 ], [ -44.865564, -3.27629, 0.0 ], [ -44.865612, -3.274423, 0.0 ], [ -44.865851, -3.272508, 0.0 ], [ -44.86647, -3.270976, 0.0 ], [ -44.869805, -3.268248, 0.0 ], [ -44.875473, -3.264754, 0.0 ], [ -44.875533, -3.2647, 0.0 ], [ -44.87695, -3.263414, 0.0 ], [ -44.877807, -3.262169, 0.0 ], [ -44.877426, -3.261068, 0.0 ], [ -44.876617, -3.260445, 0.0 ], [ -44.875236, -3.260302, 0.0 ], [ -44.872711, -3.260397, 0.0 ], [ -44.869853, -3.261163, 0.0 ], [ -44.86709, -3.26279, 0.0 ], [ -44.866114, -3.263514, 0.0 ], [ -44.86509, -3.264274, 0.0 ], [ -44.864232, -3.266237, 0.0 ], [ -44.864089, -3.268295, 0.0 ], [ -44.864041, -3.27088, 0.0 ], [ -44.863469, -3.272316, 0.0 ], [ -44.862468, -3.273752, 0.0 ], [ -44.860658, -3.275476, 0.0 ], [ -44.858658, -3.276529, 0.0 ], [ -44.856466, -3.277677, 0.0 ], [ -44.853989, -3.278443, 0.0 ], [ -44.852465, -3.279496, 0.0 ], [ -44.852655, -3.280932, 0.0 ], [ -44.853893, -3.282943, 0.0 ], [ -44.855036, -3.28639, 0.0 ], [ -44.856084, -3.28955, 0.0 ], [ -44.85675, -3.293859, 0.0 ], [ -44.856654, -3.298933, 0.0 ], [ -44.855129, -3.303337, 0.0 ], [ -44.854462, -3.304869, 0.0 ], [ -44.852271, -3.305826, 0.0 ], [ -44.850174, -3.307071, 0.0 ], [ -44.847316, -3.307262, 0.0 ], [ -44.844744, -3.306878, 0.0 ], [ -44.841505, -3.304867, 0.0 ], [ -44.840172, -3.302282, 0.0 ], [ -44.83903, -3.298835, 0.0 ], [ -44.835791, -3.296249, 0.0 ], [ -44.831409, -3.294621, 0.0 ], [ -44.828647, -3.291748, 0.0 ], [ -44.827504, -3.289354, 0.0 ], [ -44.824742, -3.287055, 0.0 ], [ -44.821693, -3.285236, 0.0 ], [ -44.817693, -3.280735, 0.0 ], [ -44.814074, -3.276043, 0.0 ], [ -44.810836, -3.272595, 0.0 ], [ -44.807883, -3.270297, 0.0 ], [ -44.806908, -3.270372, 0.0 ], [ -44.805365, -3.271252, 0.0 ], [ -44.803976, -3.274413, 0.0 ], [ -44.802832, -3.278434, 0.0 ], [ -44.801021, -3.283891, 0.0 ], [ -44.800163, -3.287147, 0.0 ], [ -44.799591, -3.290498, 0.0 ], [ -44.798542, -3.293274, 0.0 ], [ -44.798447, -3.29538, 0.0 ], [ -44.798859, -3.29678, 0.0 ], [ -44.799208, -3.297966, 0.0 ], [ -44.801303, -3.302275, 0.0 ], [ -44.802922, -3.307158, 0.0 ], [ -44.805921, -3.314316, 0.0 ], [ -44.80754, -3.318673, 0.0 ], [ -44.809254, -3.323173, 0.0 ], [ -44.811016, -3.327722, 0.0 ], [ -44.812777, -3.332414, 0.0 ], [ -44.813872, -3.334712, 0.0 ], [ -44.815777, -3.33792, 0.0 ], [ -44.817635, -3.340649, 0.0 ], [ -44.819539, -3.34333, 0.0 ], [ -44.820921, -3.344814, 0.0 ], [ -44.821825, -3.346442, 0.0 ], [ -44.822397, -3.348166, 0.0 ], [ -44.822587, -3.350224, 0.0 ], [ -44.822587, -3.351708, 0.0 ], [ -44.821634, -3.353527, 0.0 ], [ -44.820538, -3.355107, 0.0 ], [ -44.818013, -3.357548, 0.0 ], [ -44.815583, -3.359367, 0.0 ], [ -44.813915, -3.360516, 0.0 ], [ -44.812438, -3.36109, 0.0 ], [ -44.810914, -3.361329, 0.0 ], [ -44.809866, -3.36219, 0.0 ], [ -44.808722, -3.363339, 0.0 ], [ -44.806626, -3.365493, 0.0 ], [ -44.804911, -3.367072, 0.0 ], [ -44.803529, -3.368891, 0.0 ], [ -44.802576, -3.37071, 0.0 ], [ -44.802147, -3.371716, 0.0 ], [ -44.801909, -3.372051, 0.0 ], [ -44.802004, -3.372625, 0.0 ], [ -44.80229, -3.37296, 0.0 ], [ -44.803099, -3.372961, 0.0 ], [ -44.803957, -3.372721, 0.0 ], [ -44.805815, -3.372099, 0.0 ], [ -44.808816, -3.371765, 0.0 ], [ -44.811769, -3.371909, 0.0 ], [ -44.814628, -3.372149, 0.0 ], [ -44.817676, -3.373681, 0.0 ], [ -44.8192, -3.374926, 0.0 ], [ -44.820296, -3.376554, 0.0 ], [ -44.821629, -3.377847, 0.0 ], [ -44.82382, -3.378901, 0.0 ], [ -44.825773, -3.379476, 0.0 ], [ -44.828155, -3.379859, 0.0 ], [ -44.831347, -3.380386, 0.0 ], [ -44.832728, -3.381296, 0.0 ], [ -44.833776, -3.382876, 0.0 ], [ -44.833775, -3.385653, 0.0 ], [ -44.833203, -3.387424, 0.0 ], [ -44.831679, -3.389004, 0.0 ], [ -44.830726, -3.38953, 0.0 ], [ -44.829678, -3.389865, 0.0 ], [ -44.827772, -3.389482, 0.0 ], [ -44.826105, -3.388428, 0.0 ], [ -44.824533, -3.387327, 0.0 ], [ -44.821818, -3.385794, 0.0 ], [ -44.818246, -3.384405, 0.0 ], [ -44.815816, -3.384405, 0.0 ], [ -44.814482, -3.38474, 0.0 ], [ -44.81372, -3.385218, 0.0 ], [ -44.81372, -3.386032, 0.0 ], [ -44.814196, -3.387133, 0.0 ], [ -44.816435, -3.388235, 0.0 ], [ -44.818769, -3.389288, 0.0 ], [ -44.821246, -3.390773, 0.0 ], [ -44.823565, -3.392697, 0.0 ], [ -44.824816, -3.394133, 0.0 ], [ -44.825708, -3.396216, 0.0 ], [ -44.825601, -3.398837, 0.0 ], [ -44.824814, -3.401314, 0.0 ], [ -44.823385, -3.402786, 0.0 ], [ -44.822027, -3.402858, 0.0 ], [ -44.819705, -3.402606, 0.0 ], [ -44.818383, -3.4016, 0.0 ], [ -44.816311, -3.398835, 0.0 ], [ -44.814704, -3.39607, 0.0 ], [ -44.812418, -3.393664, 0.0 ], [ -44.811025, -3.392587, 0.0 ], [ -44.810346, -3.392515, 0.0 ], [ -44.809417, -3.392982, 0.0 ], [ -44.808452, -3.394058, 0.0 ], [ -44.806987, -3.396213, 0.0 ], [ -44.805092, -3.399408, 0.0 ], [ -44.803448, -3.402136, 0.0 ], [ -44.80184, -3.404649, 0.0 ], [ -44.801232, -3.405978, 0.0 ], [ -44.800553, -3.408886, 0.0 ], [ -44.79923, -3.412548, 0.0 ], [ -44.797479, -3.414953, 0.0 ], [ -44.794441, -3.417681, 0.0 ], [ -44.793619, -3.419117, 0.0 ], [ -44.793691, -3.42041, 0.0 ], [ -44.795048, -3.420877, 0.0 ], [ -44.798585, -3.421021, 0.0 ], [ -44.802909, -3.421238, 0.0 ], [ -44.807553, -3.422064, 0.0 ], [ -44.808946, -3.423716, 0.0 ], [ -44.809089, -3.425296, 0.0 ], [ -44.808267, -3.427486, 0.0 ], [ -44.80673, -3.430574, 0.0 ], [ -44.80555, -3.432548, 0.0 ], [ -44.804335, -3.433984, 0.0 ], [ -44.803299, -3.433374, 0.0 ], [ -44.804014, -3.431937, 0.0 ], [ -44.805301, -3.429819, 0.0 ], [ -44.806266, -3.428096, 0.0 ], [ -44.806659, -3.427127, 0.0 ], [ -44.807588, -3.424973, 0.0 ], [ -44.807231, -3.423752, 0.0 ], [ -44.806017, -3.423249, 0.0 ], [ -44.80423, -3.422854, 0.0 ], [ -44.800586, -3.42235, 0.0 ], [ -44.798192, -3.422062, 0.0 ], [ -44.795834, -3.422744, 0.0 ], [ -44.794298, -3.422421, 0.0 ], [ -44.792368, -3.421953, 0.0 ], [ -44.791225, -3.420984, 0.0 ], [ -44.790975, -3.419224, 0.0 ], [ -44.791047, -3.417824, 0.0 ], [ -44.791512, -3.416029, 0.0 ], [ -44.794228, -3.414342, 0.0 ], [ -44.796979, -3.412296, 0.0 ], [ -44.798302, -3.409855, 0.0 ], [ -44.798946, -3.407018, 0.0 ], [ -44.800876, -3.402997, 0.0 ], [ -44.802234, -3.399982, 0.0 ], [ -44.804914, -3.39614, 0.0 ], [ -44.806094, -3.393053, 0.0 ], [ -44.808238, -3.390396, 0.0 ], [ -44.809989, -3.389822, 0.0 ], [ -44.812704, -3.390648, 0.0 ], [ -44.815169, -3.3923, 0.0 ], [ -44.816634, -3.394563, 0.0 ], [ -44.817884, -3.396789, 0.0 ], [ -44.819205, -3.398549, 0.0 ], [ -44.820063, -3.399303, 0.0 ], [ -44.820777, -3.400057, 0.0 ], [ -44.82167, -3.400165, 0.0 ], [ -44.822349, -3.399555, 0.0 ], [ -44.823171, -3.398478, 0.0 ], [ -44.823493, -3.397221, 0.0 ], [ -44.8231, -3.395785, 0.0 ], [ -44.820993, -3.393235, 0.0 ], [ -44.818623, -3.391559, 0.0 ], [ -44.815717, -3.390697, 0.0 ], [ -44.813717, -3.389739, 0.0 ], [ -44.811669, -3.387776, 0.0 ], [ -44.811002, -3.385573, 0.0 ], [ -44.811241, -3.383754, 0.0 ], [ -44.813718, -3.381983, 0.0 ], [ -44.816195, -3.381553, 0.0 ], [ -44.820102, -3.382033, 0.0 ], [ -44.821864, -3.38299, 0.0 ], [ -44.824436, -3.383996, 0.0 ], [ -44.827056, -3.385289, 0.0 ], [ -44.828533, -3.38596, 0.0 ], [ -44.829676, -3.385002, 0.0 ], [ -44.828819, -3.384236, 0.0 ], [ -44.826008, -3.382847, 0.0 ], [ -44.823246, -3.382081, 0.0 ], [ -44.822364, -3.381458, 0.0 ], [ -44.819387, -3.380381, 0.0 ], [ -44.81641, -3.378106, 0.0 ], [ -44.813315, -3.375113, 0.0 ], [ -44.812124, -3.375113, 0.0 ], [ -44.810218, -3.376429, 0.0 ], [ -44.807121, -3.378224, 0.0 ], [ -44.804501, -3.378104, 0.0 ], [ -44.801405, -3.377265, 0.0 ], [ -44.799738, -3.374393, 0.0 ], [ -44.79962, -3.370204, 0.0 ], [ -44.800574, -3.366494, 0.0 ], [ -44.803552, -3.361946, 0.0 ], [ -44.810936, -3.3574, 0.0 ], [ -44.81451, -3.351536, 0.0 ], [ -44.81463, -3.346629, 0.0 ], [ -44.812607, -3.341362, 0.0 ], [ -44.80844, -3.33442, 0.0 ], [ -44.80594, -3.327119, 0.0 ], [ -44.803203, -3.321134, 0.0 ], [ -44.798083, -3.315867, 0.0 ], [ -44.795345, -3.310481, 0.0 ], [ -44.79344, -3.307488, 0.0 ], [ -44.792845, -3.305932, 0.0 ], [ -44.791773, -3.30653, 0.0 ], [ -44.790701, -3.308684, 0.0 ], [ -44.788319, -3.313591, 0.0 ], [ -44.785995, -3.319694, 0.0 ], [ -44.77736, -3.327173, 0.0 ], [ -44.769618, -3.332557, 0.0 ], [ -44.761282, -3.332854, 0.0 ], [ -44.754435, -3.330758, 0.0 ], [ -44.745207, -3.326267, 0.0 ], [ -44.739254, -3.319683, 0.0 ], [ -44.736736, -3.313926, 0.0 ], [ -44.732709, -3.304721, 0.0 ], [ -44.732711, -3.295445, 0.0 ], [ -44.735392, -3.288265, 0.0 ], [ -44.745815, -3.276898, 0.0 ], [ -44.754451, -3.264333, 0.0 ], [ -44.759812, -3.254461, 0.0 ], [ -44.762494, -3.243091, 0.0 ], [ -44.763092, -3.232918, 0.0 ], [ -44.759521, -3.227233, 0.0 ], [ -44.752676, -3.219451, 0.0 ], [ -44.73839, -3.208078, 0.0 ], [ -44.721127, -3.200294, 0.0 ], [ -44.705649, -3.195502, 0.0 ], [ -44.691063, -3.196396, 0.0 ], [ -44.679751, -3.196392, 0.0 ], [ -44.669928, -3.195791, 0.0 ], [ -44.662487, -3.193993, 0.0 ], [ -44.657726, -3.188905, 0.0 ], [ -44.65743, -3.182322, 0.0 ], [ -44.659814, -3.174543, 0.0 ], [ -44.661008, -3.165867, 0.0 ], [ -44.661545, -3.160781, 0.0 ], [ -44.651547, -3.151203, 0.0 ], [ -44.628692, -3.134439, 0.0 ], [ -44.625111, -3.131021, 0.0 ], [ -44.610125, -3.116719, 0.0 ], [ -44.598223, -3.106183, 0.0 ], [ -44.566801, -3.084628, 0.0 ], [ -44.542139, -3.063333, 0.0 ], [ -44.499681, -3.026673, 0.0 ], [ -44.49362, -3.022377, 0.0 ], [ -44.493616, -3.022431, 0.0 ], [ -44.494246, -3.02422, 0.0 ], [ -44.496142, -3.026947, 0.0 ], [ -44.490011, -3.022209, 0.0 ], [ -44.483334, -3.016176, 0.0 ], [ -44.470799, -3.004676, 0.0 ], [ -44.470762, -3.004643, 0.0 ], [ -44.464889, -2.999255, 0.0 ], [ -44.4642, -2.998578, 0.0 ], [ -44.463547, -2.998137, 0.0 ], [ -44.46332, -2.998498, 0.0 ], [ -44.464959, -2.999572, 0.0 ] ] ] ] } },
{ "type": "Feature", "properties": { "nome_federal": "Área de Proteção Ambiental de Upaon-Açu / Miritiba / Alto Preguiças", "nome_estadual": "APA de Upaon-Açu / Miritiba / Alto Preguiças", "categoria": "Área de Proteção Ambiental", "grupo": "Uso Sustentável", "esfera": "Estadual", "ano_criacao": "1992" }, "geometry": { "type": "MultiPolygon", "coordinates": [ [ [ [ -44.291974, -3.081982, 0.0 ], [ -44.292114, -3.082292, 0.0 ], [ -44.291971, -3.082758, 0.0 ], [ -44.291827, -3.083512, 0.0 ], [ -44.291863, -3.084123, 0.0 ], [ -44.292106, -3.08491, 0.0 ], [ -44.293035, -3.08509, 0.0 ], [ -44.293817, -3.085484, 0.0 ], [ -44.291974, -3.081982, 0.0 ] ] ], [ [ [ -44.290581, -3.079335, 0.0 ], [ -44.29058, -3.079347, 0.0 ], [ -44.290544, -3.079777, 0.0 ], [ -44.291115, -3.081142, 0.0 ], [ -44.291543, -3.081573, 0.0 ], [ -44.291924, -3.081887, 0.0 ], [ -44.290581, -3.079335, 0.0 ] ] ], [ [ [ -44.289327, -3.076952, 0.0 ], [ -44.289266, -3.077054, 0.0 ], [ -44.289081, -3.077371, 0.0 ], [ -44.289474, -3.077515, 0.0 ], [ -44.289713, -3.077687, 0.0 ], [ -44.289327, -3.076952, 0.0 ] ] ], [ [ [ -44.307638, -2.937994, 0.0 ], [ -44.313437, -2.933649, 0.0 ], [ -44.31419, -2.933565, 0.0 ], [ -44.319542, -2.935125, 0.0 ], [ -44.321424, -2.93521, 0.0 ], [ -44.324186, -2.933318, 0.0 ], [ -44.332598, -2.925629, 0.0 ], [ -44.334369, -2.924987, 0.0 ], [ -44.340019, -2.923866, 0.0 ], [ -44.344257, -2.919145, 0.0 ], [ -44.347191, -2.917584, 0.0 ], [ -44.353856, -2.912764, 0.0 ], [ -44.374101, -2.892147, 0.0 ], [ -44.374994, -2.889663, 0.0 ], [ -44.37459, -2.839894, 0.0 ], [ -44.374433, -2.821884, 0.0 ], [ -44.374186, -2.822103, 0.0 ], [ -44.371757, -2.824399, 0.0 ], [ -44.369134, -2.8276, 0.0 ], [ -44.368062, -2.829633, 0.0 ], [ -44.366871, -2.831787, 0.0 ], [ -44.365323, -2.833342, 0.0 ], [ -44.363536, -2.835017, 0.0 ], [ -44.362464, -2.83717, 0.0 ], [ -44.362462, -2.839923, 0.0 ], [ -44.36258, -2.842915, 0.0 ], [ -44.363054, -2.845787, 0.0 ], [ -44.363648, -2.849019, 0.0 ], [ -44.364954, -2.853567, 0.0 ], [ -44.366262, -2.85668, 0.0 ], [ -44.366855, -2.860989, 0.0 ], [ -44.366853, -2.864699, 0.0 ], [ -44.366851, -2.868169, 0.0 ], [ -44.366016, -2.870921, 0.0 ], [ -44.363277, -2.873194, 0.0 ], [ -44.359468, -2.873192, 0.0 ], [ -44.355422, -2.871753, 0.0 ], [ -44.352566, -2.870196, 0.0 ], [ -44.350662, -2.870673, 0.0 ], [ -44.348637, -2.872228, 0.0 ], [ -44.347089, -2.874381, 0.0 ], [ -44.345659, -2.876176, 0.0 ], [ -44.343754, -2.878089, 0.0 ], [ -44.341609, -2.881319, 0.0 ], [ -44.339108, -2.88419, 0.0 ], [ -44.336965, -2.885506, 0.0 ], [ -44.335179, -2.885983, 0.0 ], [ -44.332084, -2.885981, 0.0 ], [ -44.329584, -2.887536, 0.0 ], [ -44.327441, -2.887534, 0.0 ], [ -44.324585, -2.886216, 0.0 ], [ -44.322443, -2.885377, 0.0 ], [ -44.320421, -2.884179, 0.0 ], [ -44.31804, -2.884178, 0.0 ], [ -44.316374, -2.884177, 0.0 ], [ -44.315183, -2.884176, 0.0 ], [ -44.313398, -2.883936, 0.0 ], [ -44.312327, -2.883337, 0.0 ], [ -44.310186, -2.88178, 0.0 ], [ -44.307447, -2.882735, 0.0 ], [ -44.303995, -2.883092, 0.0 ], [ -44.301382, -2.883816, 0.0 ], [ -44.301132, -2.884247, 0.0 ], [ -44.300846, -2.884678, 0.0 ], [ -44.30081, -2.884929, 0.0 ], [ -44.300739, -2.885288, 0.0 ], [ -44.300846, -2.885611, 0.0 ], [ -44.301131, -2.886222, 0.0 ], [ -44.301416, -2.886868, 0.0 ], [ -44.301602, -2.887331, 0.0 ], [ -44.301661, -2.888168, 0.0 ], [ -44.30166, -2.889245, 0.0 ], [ -44.302255, -2.889964, 0.0 ], [ -44.303207, -2.890323, 0.0 ], [ -44.304159, -2.890563, 0.0 ], [ -44.304932, -2.891102, 0.0 ], [ -44.305825, -2.891462, 0.0 ], [ -44.305824, -2.89224, 0.0 ], [ -44.305764, -2.892958, 0.0 ], [ -44.305347, -2.893795, 0.0 ], [ -44.305168, -2.894394, 0.0 ], [ -44.30493, -2.894992, 0.0 ], [ -44.304929, -2.89571, 0.0 ], [ -44.305048, -2.896608, 0.0 ], [ -44.305345, -2.897625, 0.0 ], [ -44.305464, -2.898343, 0.0 ], [ -44.30582, -2.898882, 0.0 ], [ -44.306117, -2.89972, 0.0 ], [ -44.30695, -2.900438, 0.0 ], [ -44.307902, -2.900738, 0.0 ], [ -44.308914, -2.901098, 0.0 ], [ -44.309806, -2.901697, 0.0 ], [ -44.310282, -2.902535, 0.0 ], [ -44.311055, -2.902715, 0.0 ], [ -44.312186, -2.902716, 0.0 ], [ -44.31302, -2.902357, 0.0 ], [ -44.313734, -2.901939, 0.0 ], [ -44.314746, -2.90164, 0.0 ], [ -44.315757, -2.90194, 0.0 ], [ -44.316471, -2.902479, 0.0 ], [ -44.317007, -2.903197, 0.0 ], [ -44.317839, -2.904275, 0.0 ], [ -44.318851, -2.904275, 0.0 ], [ -44.319743, -2.904515, 0.0 ], [ -44.320457, -2.904935, 0.0 ], [ -44.320992, -2.905892, 0.0 ], [ -44.321527, -2.90697, 0.0 ], [ -44.321656, -2.907652, 0.0 ], [ -44.322036, -2.90928, 0.0 ], [ -44.32213, -2.911195, 0.0 ], [ -44.322034, -2.912344, 0.0 ], [ -44.322224, -2.913397, 0.0 ], [ -44.323522, -2.914755, 0.0 ], [ -44.323939, -2.915473, 0.0 ], [ -44.324414, -2.916012, 0.0 ], [ -44.325129, -2.916311, 0.0 ], [ -44.326497, -2.916851, 0.0 ], [ -44.327568, -2.91727, 0.0 ], [ -44.328103, -2.918108, 0.0 ], [ -44.328103, -2.918467, 0.0 ], [ -44.327924, -2.919006, 0.0 ], [ -44.327626, -2.919424, 0.0 ], [ -44.327269, -2.919664, 0.0 ], [ -44.326436, -2.919843, 0.0 ], [ -44.326019, -2.919842, 0.0 ], [ -44.325305, -2.920381, 0.0 ], [ -44.324649, -2.921278, 0.0 ], [ -44.324292, -2.921816, 0.0 ], [ -44.323875, -2.922354, 0.0 ], [ -44.323577, -2.923072, 0.0 ], [ -44.323458, -2.92373, 0.0 ], [ -44.323238, -2.92438, 0.0 ], [ -44.322821, -2.924799, 0.0 ], [ -44.322702, -2.925756, 0.0 ], [ -44.322523, -2.926474, 0.0 ], [ -44.322343, -2.927312, 0.0 ], [ -44.322046, -2.927671, 0.0 ], [ -44.321391, -2.928209, 0.0 ], [ -44.320974, -2.928628, 0.0 ], [ -44.320854, -2.929525, 0.0 ], [ -44.320854, -2.930243, 0.0 ], [ -44.320615, -2.930782, 0.0 ], [ -44.319961, -2.93108, 0.0 ], [ -44.319365, -2.931439, 0.0 ], [ -44.318532, -2.931498, 0.0 ], [ -44.317461, -2.931199, 0.0 ], [ -44.316211, -2.931078, 0.0 ], [ -44.315556, -2.931138, 0.0 ], [ -44.314068, -2.931496, 0.0 ], [ -44.312878, -2.931854, 0.0 ], [ -44.311747, -2.931913, 0.0 ], [ -44.311151, -2.932152, 0.0 ], [ -44.310437, -2.932331, 0.0 ], [ -44.309306, -2.93251, 0.0 ], [ -44.308175, -2.932808, 0.0 ], [ -44.307731, -2.933031, 0.0 ], [ -44.307342, -2.933227, 0.0 ], [ -44.306865, -2.933586, 0.0 ], [ -44.306627, -2.934303, 0.0 ], [ -44.306626, -2.9355, 0.0 ], [ -44.306269, -2.936218, 0.0 ], [ -44.305435, -2.936876, 0.0 ], [ -44.304423, -2.937174, 0.0 ], [ -44.303887, -2.938371, 0.0 ], [ -44.303703, -2.939199, 0.0 ], [ -44.307638, -2.937994, 0.0 ] ] ] ] } },
{ "type": "Feature", "properties": { "nome_federal": null, "nome_estadual": "PE de Mirador", "categoria": "Parque Estadual", "grupo": "Proteção Integral", "esfera": "Estadual", "ano_criacao": "1980" }, "geometry": { "type": "Polygon", "coordinates": [ [ [ -45.921514, -6.566142, 0.0 ], [ -45.902133, -6.562068, 0.0 ], [ -45.902492, -6.562455, 0.0 ], [ -45.90393, -6.56341, 0.0 ], [ -45.904507, -6.565132, 0.0 ], [ -45.904223, -6.566664, 0.0 ], [ -45.903267, -6.567336, 0.0 ], [ -45.901833, -6.568104, 0.0 ], [ -45.900206, -6.568682, 0.0 ], [ -45.898294, -6.569642, 0.0 ], [ -45.89734, -6.571558, 0.0 ], [ -45.898904, -6.573285, 0.0 ], [ -45.900918, -6.575148, 0.0 ], [ -45.901928, -6.578018, 0.0 ], [ -45.902794, -6.580314, 0.0 ], [ -45.904808, -6.582751, 0.0 ], [ -45.906389, -6.583466, 0.0 ], [ -45.908255, -6.583176, 0.0 ], [ -45.910983, -6.582883, 0.0 ], [ -45.91371, -6.582304, 0.0 ], [ -45.916007, -6.5823, 0.0 ], [ -45.917972, -6.582984, 0.0 ], [ -45.921514, -6.566142, 0.0 ] ] ] } }
]
}
